{"type": "Feature", "properties": {"name": "\u0e15\u0e33\u0e1a\u0e25\u0e01\u0e23\u0e30\u0e17\u0e38\u0e48\u0e21\u0e25\u0e49\u0e21 (GADM)"}, "geometry": {"type": "Polygon", "coordinates": [[[100.3327, 13.7395], [100.3337, 13.7342], [100.3266, 13.7274], [100.324, 13.7267], [100.3245, 13.7219], [100.3181, 13.7193], [100.3123, 13.7195], [100.3016, 13.7167], [100.2955, 13.7306], [100.2899, 13.7356], [100.2878, 13.7404], [100.2965, 13.7483], [100.3021, 13.7453], [100.3096, 13.7483], [100.313, 13.7516], [100.3252, 13.7513], [100.3325, 13.7532], [100.3327, 13.7395]]]}}