{"type":"FeatureCollection","bbox":[99.8306,13.4249,100.9638,14.2733],"features":[{"type":"Feature","properties":{"name_en":"Bangkok Metropolis","name_th":"กรุงเทพมหานคร"},"geometry":{"type":"Polygon","coordinates":[[[100.5157,13.627],[100.5174,13.6134],[100.5216,13.6044],[100.5145,13.6019],[100.513,13.6028],[100.5124,13.601],[100.5104,13.6006],[100.5055,13.6039],[100.502,13.6024],[100.4937,13.6029],[100.4819,13.607],[100.4753,13.5987],[100.4745,13.5941],[100.4708,13.5927],[100.4687,13.5951],[100.468,13.6028],[100.4647,13.6048],[100.4555,13.6043],[100.4477,13.5847],[100.4453,13.5545],[100.4528,13.5105],[100.4531,13.5014],[100.4431,13.4994],[100.4369,13.4964],[100.4353,13.4972],[100.4303,13.4956],[100.4261,13.4972],[100.4208,13.4942],[100.4133,13.4944],[100.4108,13.4925],[100.4058,13.4956],[100.4065,13.5031],[100.4052,13.5108],[100.4131,13.5272],[100.4138,13.5359],[100.4198,13.5399],[100.4209,13.5439],[100.4155,13.5499],[100.4185,13.5596],[100.4176,13.5616],[100.3973,13.5561],[100.394,13.5582],[100.3851,13.5877],[100.377,13.585],[100.3822,13.59],[100.3796,13.5933],[100.378,13.616],[100.371,13.6286],[100.3621,13.6332],[100.3563,13.6393],[100.3497,13.64],[100.3417,13.638],[100.3393,13.6421],[100.3423,13.6591],[100.3393,13.6742],[100.3346,13.6807],[100.3316,13.6956],[100.3316,13.7121],[100.3353,13.714],[100.3357,13.7285],[100.3321,13.7327],[100.3337,13.7342],[100.3327,13.7395],[100.3325,13.7532],[100.3301,13.7653],[100.3313,13.7845],[100.3297,13.8012],[100.32,13.8215],[100.3307,13.8032],[100.3976,13.8004],[100.4014,13.8015],[100.4087,13.8],[100.467,13.7954],[100.4705,13.7926],[100.4687,13.7891],[100.4715,13.7883],[100.5019,13.7995],[100.5161,13.8114],[100.51621063829788,13.808136170212745],[100.5169,13.8121],[100.5083,13.8165],[100.5078,13.8187],[100.5103,13.824],[100.5158,13.8258],[100.5371,13.8451],[100.5451,13.8489],[100.5687,13.949],[100.5651,13.9487],[100.5755,13.9534],[100.5898,13.9504],[100.6052,13.9438],[100.6071,13.9447],[100.606,13.9509],[100.6106,13.9543],[100.6264,13.948],[100.6266,13.937],[100.6411,13.9366],[100.6416,13.9306],[100.6908,13.9289],[100.6904,13.9246],[100.6966,13.9234],[100.7024,13.9191],[100.7063,13.9193],[100.7081,13.9169],[100.7214,13.9168],[100.7299,13.9187],[100.7299,13.9157],[100.7526,13.9169],[100.7926,13.9299],[100.8218,13.9357],[100.8259,13.9335],[100.9151,13.9443],[100.9078,13.8852],[100.9074,13.8598],[100.9035,13.8481],[100.8933,13.8495],[100.9391,13.8134],[100.9303,13.801],[100.9106,13.7891],[100.856,13.6994],[100.862,13.6961],[100.8602,13.6884],[100.845,13.6954],[100.7894,13.7153],[100.7489,13.7153],[100.7218,13.7179],[100.7112,13.717],[100.7136,13.6975],[100.7059,13.6716],[100.7003,13.66],[100.6999,13.6548],[100.6855,13.6578],[100.6686,13.6653],[100.668,13.6672],[100.6705,13.6719],[100.6679,13.6745],[100.6607,13.6686],[100.6566,13.6705],[100.6492,13.6513],[100.5937,13.663],[100.5811,13.6672],[100.5885,13.6782],[100.5905,13.686],[100.5887,13.6918],[100.5826,13.6974],[100.5615,13.7058],[100.5564,13.7048],[100.5529,13.7],[100.5535,13.6817],[100.549,13.6723],[100.5434,13.6686],[100.5348,13.669],[100.5234,13.6784],[100.52154247330348,13.678614330003443],[100.5183,13.6716],[100.5181,13.6653],[100.5182,13.6673],[100.5193,13.6648],[100.5187,13.6341],[100.5157,13.627]],[[100.35666951819076,13.741097967879384],[100.35569999999998,13.743087500000042],[100.3565,13.7413],[100.3327,13.7395],[100.35666951819076,13.741097967879384]],[[100.4639,13.7899],[100.46399023650697,13.789283383869018],[100.467,13.7954],[100.4639,13.7899]],[[100.5053,13.6638],[100.5162,13.6648],[100.5181,13.6653],[100.5053,13.6638]],[[100.51524098883574,13.802799521531135],[100.5153,13.8029],[100.51531562499999,13.80298984374997],[100.51524098883574,13.802799521531135]],[[100.5016,13.7856],[100.5116,13.7966],[100.51281623762375,13.798670891089092],[100.5016,13.7856]],[[100.5164,13.7573],[100.5149,13.7434],[100.5149,13.7414],[100.5165,13.7562],[100.5246,13.7524],[100.5181,13.7557],[100.50865704467355,13.765583161512012],[100.5164,13.7573]],[[100.5488,13.7516],[100.5617,13.7512],[100.5246,13.7524],[100.5488,13.7516]],[[100.59601411016949,13.744654533898304],[100.596,13.7447],[100.5617,13.7512],[100.59601411016949,13.744654533898304]],[[100.5989,13.7514],[100.6134,13.7644],[100.5984,13.751],[100.596,13.7447],[100.5989,13.7514]],[[100.5645,13.7636],[100.5633,13.7583],[100.5617,13.7512],[100.5645,13.7636]],[[100.60468569105691,13.710193821138215],[100.59857584745765,13.707106355932218],[100.60468624438667,13.710193051288115],[100.60468569105691,13.710193821138215]],[[100.3501,13.7556],[100.35015672780992,13.755473248799705],[100.35140245139475,13.755673034657649],[100.3501,13.7556]],[[100.404,13.7528],[100.3715,13.7568],[100.4116,13.7512],[100.404,13.7528]],[[100.4859,13.7594],[100.4862,13.7513],[100.48639292604501,13.751020257234718],[100.4859,13.7594]],[[100.49072155369383,13.74525552170602],[100.48716453900705,13.749901418439766],[100.4902,13.7455],[100.49072155369383,13.74525552170602]],[[100.4983034934498,13.741992576419209],[100.4975,13.7423],[100.49555221238938,13.742991150442478],[100.4966,13.7425],[100.4983034934498,13.741992576419209]],[[100.5038,13.759],[100.50195706409372,13.750455478979998],[100.5022,13.7509],[100.5038,13.759]],[[100.51088911174784,13.728729799426928],[100.511,13.7325],[100.51057980456025,13.733634527687304],[100.51088911174784,13.728729799426928]],[[100.5107,13.7223],[100.51071830110497,13.722922237569058],[100.5067,13.7156],[100.5107,13.7223]],[[100.48988553633217,13.702854602076101],[100.49183690036902,13.705214391143926],[100.4904,13.7043],[100.48988553633217,13.702854602076101]],[[100.5163,13.6868],[100.51602160551897,13.686856255879587],[100.5232,13.6822],[100.5163,13.6868]],[[100.36112857142884,13.731947619047089],[100.3785767268863,13.695888097768313],[100.3785,13.6963],[100.36112857142884,13.731947619047089]],[[100.3858,13.6719],[100.391,13.6718],[100.39153518829983,13.672094413162707],[100.3858,13.6719]],[[100.4359,13.6965],[100.4453,13.6853],[100.43339799196788,13.700753413654619],[100.4359,13.6965]],[[100.43293735632184,13.701536494252872],[100.43323517495396,13.702624677716386],[100.4329,13.7016],[100.43293735632184,13.701536494252872]],[[100.43602001832342,13.711138341731564],[100.43761961057024,13.711871488178026],[100.4364,13.7123],[100.43602001832342,13.711138341731564]],[[100.46671755196306,13.714498729792147],[100.4667,13.7144],[100.4698,13.7133],[100.46671755196306,13.714498729792147]],[[100.48109927470534,13.697906799637353],[100.48099514018692,13.697904299065417],[100.4809592,13.697734400000003],[100.48109927470534,13.697906799637353]],[[100.4745,13.6623],[100.4745,13.662443396226415],[100.4695,13.6615],[100.4745,13.6623]],[[100.4744,13.667],[100.4748,13.66465185185185],[100.4748,13.667085714285713],[100.4744,13.667]],[[100.4861,13.6858],[100.4868652849741,13.683121502590684],[100.487,13.6833],[100.4861,13.6858]],[[100.4612,13.7352],[100.46234392523365,13.733134579439234],[100.46114023437501,13.736023437500004],[100.4612,13.7352]],[[100.4648,13.7287],[100.46619668508289,13.727827071823194],[100.46345053380782,13.731136536180326],[100.4648,13.7287]],[[100.4696,13.7257],[100.47124238227147,13.725721329639889],[100.46791232876711,13.726754794520552],[100.4696,13.7257]],[[100.4773,13.7258],[100.4827,13.728],[100.47432588473205,13.72576137512639],[100.4773,13.7258]],[[100.509,13.7379],[100.5069533898305,13.73868305084746],[100.50985714285714,13.735585714285707],[100.509,13.7379]],[[100.46401237458194,13.789132107023411],[100.466,13.7897],[100.46401237458194,13.789132107023413],[100.46401237458194,13.789132107023411]],[[100.45145721153847,13.770966826923082],[100.4552,13.7797],[100.4514,13.7714],[100.45145721153847,13.770966826923082]],[[100.54274444444445,13.71041111111111],[100.5429,13.7105],[100.541,13.7139],[100.54274444444445,13.71041111111111]],[[100.5527,13.7197],[100.55183266471224,13.720179802499613],[100.55347336255174,13.714655003652318],[100.5518,13.7259],[100.5527,13.7197]],[[100.5851,13.8622],[100.58687603195739,13.882723035952063],[100.5865,13.8823],[100.5851,13.8622]],[[100.5895,13.8409],[100.5885,13.8466],[100.5851,13.8622],[100.5895,13.8409]],[[100.566,13.8017],[100.5871,13.8053],[100.5822,13.8056],[100.566,13.8017]],[[100.56463833192923,13.797225947767481],[100.5653,13.7972],[100.566,13.8017],[100.56463833192923,13.797225947767481]],[[100.5416,13.8232],[100.5429696226692,13.81808674203494],[100.5432,13.8187],[100.5416,13.8232]],[[100.5361,13.7998],[100.5602,13.7974],[100.56230446096656,13.797317472118959],[100.5361,13.7998]],[[100.6483,13.7317],[100.6467,13.7204],[100.64875854843606,13.732163133920423],[100.6483,13.7317]],[[100.6573,13.7403],[100.6583,13.7418],[100.65121970802927,13.734648905109557],[100.6573,13.7403]],[[100.64044337979094,13.679566027874557],[100.6362,13.6982],[100.63604270890224,13.698480174767903],[100.6394,13.6812],[100.64044337979094,13.679566027874557]],[[100.6016,13.7983],[100.6033,13.798],[100.6099,13.7976],[100.6016,13.7983]],[[100.6363,13.8478],[100.6309,13.8395],[100.63787958758593,13.84867317225578],[100.6275,13.8459],[100.6363,13.8478]],[[100.63812657342658,13.84873916083916],[100.64163165938865,13.849344978165938],[100.6406,13.8494],[100.63812657342658,13.84873916083916]],[[100.70389950083195,13.800216805324457],[100.67040149508196,13.782706780327869],[100.6638,13.7787],[100.70389950083195,13.800216805324457]],[[100.70530456226881,13.799826510480884],[100.70603999999993,13.798553333333462],[100.7054,13.7998],[100.70530456226881,13.799826510480884]],[[100.71498730158731,13.781124735449731],[100.71499804560261,13.781082654723118],[100.715,13.7811],[100.71498730158731,13.781124735449731]],[[100.7761,13.7869],[100.7836,13.7855],[100.78358716904278,13.785652138492871],[100.7761,13.7869]],[[100.78231579384872,13.802135151704073],[100.7878,13.8038],[100.7823,13.8023],[100.78231579384872,13.802135151704073]],[[100.79523166666665,13.795306666666683],[100.7943,13.7976],[100.79510930232556,13.799083720930188],[100.7943,13.7978],[100.7878,13.8038],[100.79523166666665,13.795306666666683]],[[100.7954372106825,13.79480071216616],[100.7932,13.7877],[100.7956,13.7944],[100.7954372106825,13.79480071216616]],[[100.64703624161073,13.747932214765102],[100.6471,13.7482],[100.6446,13.7498],[100.64703624161073,13.747932214765102]],[[100.6474,13.7455],[100.64775020080322,13.74538112449799],[100.64740941176471,13.745594117647059],[100.6474,13.7455]],[[100.7054301505465,13.760455454732934],[100.7142,13.774],[100.7052,13.7605],[100.7054301505465,13.760455454732934]],[[100.79912847015274,13.853020896768083],[100.7874,13.8818],[100.79854631213793,13.852701220524866],[100.79912847015274,13.853020896768083]],[[100.7972,13.8024],[100.79651132567852,13.801307620041777],[100.8072,13.8119],[100.7972,13.8024]],[[100.68388878923767,13.849164125560545],[100.6832,13.8508],[100.68187793427231,13.851270735524254],[100.68388878923767,13.849164125560545]],[[100.6872,13.8377],[100.6872,13.8413],[100.685639408867,13.845006403940884],[100.6872,13.8377]],[[100.6992,13.8071],[100.69954333333334,13.806569393939398],[100.7006,13.8107],[100.6992,13.8071]],[[100.6966,13.8155],[100.696804,13.815255200000008],[100.69638847926268,13.81679262672805],[100.6966,13.8155]],[[100.60751482649842,13.891010515247109],[100.6098,13.8952],[100.607,13.8912],[100.60751482649842,13.891010515247109]],[[100.62177511961723,13.886040669856461],[100.61423654822329,13.888536548223373],[100.6214,13.8859],[100.62177511961723,13.886040669856461]],[[100.66130237659964,13.882154478976233],[100.6592229390681,13.882402031063322],[100.6606,13.8817],[100.66130237659964,13.882154478976233]],[[100.673,13.8838],[100.67225472093999,13.883154091481327],[100.6738758013385,13.883007608312786],[100.673,13.8838]],[[100.6803,13.8825],[100.67994572072072,13.882459121621622],[100.68034974874372,13.882422613065327],[100.6803,13.8825]],[[100.6839,13.8769],[100.68115,13.881177777777784],[100.68493125,13.87277500000001],[100.6839,13.8769]],[[100.68165076923077,13.864103201663204],[100.6851,13.8721],[100.68505316455696,13.872287341772152],[100.68165076923077,13.864103201663204]],[[100.69120832507433,13.901158671952427],[100.6912,13.9015],[100.6888,13.906438461538473],[100.69120832507433,13.901158671952427]],[[100.68613515125693,13.91192190029825],[100.686,13.9122],[100.68503684210526,13.912842105263165],[100.68613515125693,13.91192190029825]],[[100.68287727019498,13.91465147632312],[100.68607254901956,13.919184313725426],[100.6827,13.9148],[100.68287727019498,13.91465147632312]],[[100.6867,13.920074418604658],[100.687,13.9205],[100.6867,13.9225],[100.6867,13.920074418604658]]]}},{"type":"Feature","properties":{"name_en":"Nakhon Pathom","name_th":"นครปฐม"},"geometry":{"type":"Polygon","coordinates":[[[99.9538,13.775],[99.9576,13.7951],[99.9637,13.7985],[99.9669,13.7968],[99.9694,13.7976],[99.971,13.7997],[99.9706,13.809],[99.9634,13.8121],[99.9633,13.8205],[99.962,13.823],[99.964,13.8244],[99.9634,13.8291],[99.9581,13.835],[99.9551,13.8319],[99.9488,13.8299],[99.9409,13.83],[99.9365,13.8329],[99.9385,13.8375],[99.937,13.8409],[99.9219,13.845],[99.9145,13.8433],[99.9119,13.8443],[99.9115,13.8464],[99.9049,13.8407],[99.9022,13.8404],[99.9132,13.8715],[99.9107,13.8773],[99.9054,13.8816],[99.9076,13.8868],[99.9022,13.899],[99.8978,13.9019],[99.907,13.9067],[99.9125,13.9039],[99.917,13.9067],[99.9241,13.9182],[99.9271,13.9361],[99.9196,13.9412],[99.91,13.9382],[99.8932,13.9404],[99.8765,13.9499],[99.8702,13.9624],[99.8542,13.9698],[99.8531,13.9808],[99.8457,13.9834],[99.8457,13.9973],[99.8428,13.9963],[99.8397,13.9978],[99.8381,13.9958],[99.8331,13.9964],[99.8306,13.9986],[99.834,14.0108],[99.8544,14.0413],[99.8471,14.0521],[99.8445,14.0527],[99.8442,14.0584],[99.8571,14.0663],[99.8701,14.0713],[99.9061,14.1137],[99.9182,14.119],[99.9289,14.1187],[99.9322,14.1206],[99.9373,14.1301],[99.9421,14.1345],[99.9514,14.136],[99.9697,14.1342],[99.9829,14.1387],[99.9979,14.1367],[100.008,14.1397],[100.0278,14.1402],[100.0809,14.1466],[100.1324,14.1452],[100.1561,14.1623],[100.1562,14.1662],[100.2156,14.1819],[100.2165,14.1853],[100.2253,14.191],[100.2281,14.1957],[100.2432,14.2086],[100.2452,14.1828],[100.2475,14.1731],[100.2849,14.1689],[100.2782,14.1016],[100.2782,14.0846],[100.2747,14.0668],[100.2736,14.031],[100.2664,14.008],[100.2766,14.0005],[100.2691,13.9922],[100.2711,13.9866],[100.2872,13.9698],[100.2989,13.9621],[100.2874,13.9455],[100.2709,13.9291],[100.2652,13.9201],[100.2762,13.9133],[100.3291,13.8032],[100.3311,13.7887],[100.3301,13.7653],[100.3325,13.7532],[100.3337,13.7342],[100.3266,13.7274],[100.324,13.7267],[100.3245,13.7219],[100.3181,13.7193],[100.3123,13.7195],[100.3016,13.7167],[100.2871,13.71],[100.284,13.6924],[100.2791,13.6919],[100.2758,13.6854],[100.2664,13.6807],[100.2537,13.6898],[100.2606,13.6839],[100.2447,13.6744],[100.2435,13.6774],[100.2267,13.6687],[100.2204,13.6818],[100.2162,13.6865],[100.215,13.6845],[100.1994,13.6803],[100.1866,13.6794],[100.1813,13.6884],[100.1778,13.6879],[100.1756,13.6807],[100.1694,13.6836],[100.1662,13.6875],[100.1565,13.6833],[100.1374,13.6822],[100.1261,13.6719],[100.1159,13.6571],[100.1046,13.6485],[100.0949,13.6468],[100.0723,13.6519],[100.0634,13.6488],[100.06,13.6501],[100.0599,13.6516],[100.0614,13.66],[100.0641,13.6651],[100.0648,13.6724],[100.0686,13.6803],[100.0694,13.6904],[100.0676,13.6949],[100.0356,13.6909],[100.0265,13.7014],[100.0232,13.7188],[100.0244,13.7353],[100.0316,13.7443],[100.0306,13.7505],[100.0281,13.7526],[100.0192,13.7454],[100.0123,13.7442],[100.0008,13.7358],[99.9963,13.7364],[99.9538,13.7311],[99.9502,13.7376],[99.9437,13.7429],[99.9423,13.7462],[99.9409,13.7593],[99.9492,13.7665],[99.9538,13.775]],[[100.28053716832943,13.829985544470388],[100.2917,13.8308],[100.3141,13.8339],[100.28053716832943,13.829985544470388]],[[100.25142424383434,13.698290321079552],[100.2513,13.6967],[100.2537,13.6898],[100.25142424383434,13.698290321079552]],[[100.1105,14.0952],[100.0948,14.0693],[100.1071,14.0895],[100.1209,14.1067],[100.1105,14.0952]],[[100.1156,14.0806],[100.12361647058823,14.074587647058834],[100.1071,14.0895],[100.1156,14.0806]],[[100.1229,14.0534],[100.1338,14.0586],[100.1354,14.0606],[100.1229,14.0534]],[[100.1318,14.0212],[100.13209980589079,14.035290876867247],[100.13209980589079,14.035290876867249],[100.1318,14.0212]],[[100.1336,14.0119],[100.13455698478562,14.009727385892111],[100.1318,14.0212],[100.1336,14.0119]],[[100.1373,14.0035],[100.1435,13.9951],[100.13578205128205,14.00694615384617],[100.1373,14.0035]],[[100.1661,13.9286],[100.151,13.9196],[100.1669400704617,13.928068162432782],[100.16526938775513,13.929363265306094],[100.1661,13.9286]],[[100.1399,13.919],[100.13786049382716,13.917878271604938],[100.151,13.9196],[100.1399,13.919]],[[100.1477,13.8927],[100.15381643013102,13.900830376637561],[100.151,13.8987],[100.1477,13.8927]],[[100.1672884086444,13.855143222003948],[100.1672,13.8556],[100.16642346850735,13.856421829163047],[100.1672884086444,13.855143222003948]],[[100.1688,13.8426],[100.173,13.8281],[100.16858566037736,13.848440754716911],[100.1688,13.8426]],[[100.1753,13.8227],[100.1608,13.8019],[100.17648974084386,13.824347333476123],[100.1753,13.8227]],[[100.1774,13.8048],[100.1838,13.8041],[100.1639,13.8063],[100.1774,13.8048]],[[100.186,13.7743],[100.18708176583492,13.771974203454924],[100.1774,13.8048],[100.186,13.7743]],[[100.1328,13.848],[100.1274,13.8331],[100.12565538881309,13.823542564802086],[100.1285,13.836],[100.1328,13.848]],[[100.1196,13.799],[100.123,13.8099],[100.12492078651687,13.819799438202276],[100.1196,13.799]],[[100.14223960821785,13.806563975155287],[100.1403,13.8078],[100.13797777403036,13.808081888701517],[100.14223960821785,13.806563975155287]],[[100.15106011477761,13.70871585365853],[100.1522,13.7101],[100.1581,13.727],[100.15106011477761,13.70871585365853]],[[100.1621,13.7289],[100.1639,13.73],[100.1581,13.727],[100.1621,13.7289]],[[100.1628,13.7232],[100.16417048102778,13.720978159545869],[100.1621,13.7289],[100.1628,13.7232]],[[100.134,13.7058],[100.1097,13.7009],[100.1494,13.7067],[100.134,13.7058]],[[100.0719,14.0442],[100.06547332345312,14.056792812152658],[100.07,14.0467],[100.0719,14.0442]],[[100.07238805668017,14.033462753036437],[100.07238805668017,14.033462753036439],[100.0719,14.0442],[100.07238805668017,14.033462753036437]],[[100.0659,13.9989],[100.06574850299401,14.000566467065862],[100.0636,13.9943],[100.0659,13.9989]],[[100.0527,13.9851],[100.05526374501993,13.98715099601594],[100.0542,13.9869],[100.0527,13.9851]],[[100.0558,13.9242],[100.0501,13.9317],[100.05611398963731,13.92247305699481],[100.0558,13.9242]],[[100.04,13.8911],[100.0333,13.8879],[100.0422,13.8909],[100.0343,13.8939],[100.04,13.8911]],[[100.03723575931232,13.867021031518624],[100.0291,13.869],[100.0348,13.8669],[100.03723575931232,13.867021031518624]],[[100.07,13.8422],[100.0663,13.8462],[100.06051714285714,13.849682857142863],[100.0607,13.8495],[100.07,13.8422]],[[100.0406,13.8233],[100.05905886075956,13.824201898734179],[100.0466,13.8238],[100.0406,13.8233]],[[100.0686,13.7897],[100.0696763064133,13.791680403800482],[100.0621,13.7842],[100.0686,13.7897]],[[100.04909487179486,13.77609487179487],[100.0602,13.7801],[100.0503,13.7773],[100.04909487179486,13.77609487179487]],[[99.9336704455836,13.891368671135641],[99.9345,13.8907],[99.9412,13.8879],[99.9336704455836,13.891368671135641]],[[99.9487,13.8899],[99.9491,13.8793],[99.9491,13.8869],[99.9487,13.8899]],[[99.9621,13.8916],[99.97734597364568,13.881123279648609],[99.9763,13.8823],[99.9621,13.8916]],[[99.98003430656932,13.879275912408772],[99.9816,13.8782],[99.98205783783784,13.87811535771065],[99.98003430656932,13.879275912408772]],[[99.9813,13.8188],[99.9785,13.8203],[99.97758875154511,13.820311990111248],[99.9813,13.8188]],[[99.99942441314555,13.786954366197168],[99.9997,13.7896],[99.9986,13.7966],[99.99942441314555,13.786954366197168]],[[100.0371,13.8244],[100.0374,13.8204],[100.0384,13.8128],[100.0371,13.8244]],[[100.0074,13.8231],[100.00711497680584,13.823566401590456],[100.007,13.8206],[100.0074,13.8231]],[[100.0374,13.8365],[100.0395,13.8328],[100.0095,13.8496],[100.0421,13.8311],[100.0374,13.8365]],[[99.89371490094746,13.977570456503017],[99.8944,13.9761],[99.899,13.9713],[99.89371490094746,13.977570456503017]],[[99.8899,13.9873],[99.8903,13.9849],[99.89221395881007,13.980791990846663],[99.8899,13.9873]],[[99.8974,13.9899],[99.894,13.9888],[99.8899,13.9873],[99.8974,13.9899]],[[99.89963023839397,13.987521079046438],[99.8993,13.9885],[99.8974,13.9899],[99.89963023839397,13.987521079046438]],[[99.98421504424778,13.988391150442482],[99.9819,13.9936],[99.9831,13.9894],[99.98421504424778,13.988391150442482]],[[99.94118835443038,13.937660506329117],[99.9343,13.9338],[99.9374,13.9349],[99.94118835443038,13.937660506329117]],[[99.9476,13.9434],[99.94448562197091,13.940063166397412],[99.94955193298969,13.943754896907217],[99.9476,13.9434]],[[99.9531,13.9444],[99.95143345864662,13.944096992481203],[99.957,13.9431],[99.9531,13.9444]],[[99.9977,13.9432],[100.009,13.9423],[99.9952,13.9446],[99.9856,13.9498],[99.9977,13.9432]],[[99.9784,13.9234],[99.9831,13.921],[99.9757,13.9249],[99.9784,13.9234]],[[100.0264,13.9396],[100.017013466788,13.947469517743393],[100.018,13.9458],[100.0264,13.9396]],[[100.01627088915954,13.948726187576147],[100.0132,13.9598],[100.0154,13.9502],[100.01627088915954,13.948726187576147]],[[100.014,13.9621],[100.0226,13.9628],[100.0231522884882,13.963201664355061],[100.014,13.9621]],[[100.0251963963964,13.964688288288292],[100.0259,13.9652],[100.02580826873384,13.966676873385005],[100.0251963963964,13.964688288288292]],[[100.07799029745043,13.850538597733728],[100.0782,13.8509],[100.0787,13.8537],[100.07799029745043,13.850538597733728]],[[100.08342861468584,13.856391672975017],[100.0828,13.8563],[100.0787,13.8537],[100.08342861468584,13.856391672975017]],[[100.0779,13.8008],[100.0786,13.8069],[100.0762,13.7976],[100.0779,13.8008]],[[100.1099,13.789],[100.1047,13.7919],[100.09730742804085,13.793551532033428],[100.1099,13.789]],[[100.1348,13.7866],[100.1387,13.7868],[100.1229,13.7878],[100.1348,13.7866]],[[100.1405,13.7921],[100.14067723577236,13.793252032520352],[100.1387,13.7868],[100.1405,13.7921]],[[100.0771,13.7622],[100.06567219209914,13.76131412341854],[100.0668,13.7612],[100.0771,13.7622]],[[100.0963,13.6957],[100.1053,13.6976],[100.10595570776256,13.698091780821915],[100.0963,13.6957]],[[100.13544818461538,13.777231446153845],[100.1361,13.7766],[100.13860706243604,13.776430603889457],[100.13544818461538,13.777231446153845]],[[100.0636,13.9041],[100.0801,13.8938],[100.06193625254582,13.9064767820774],[100.0636,13.9041]],[[100.1033,13.9325],[100.1075,13.9169],[100.10053808487486,13.945046028291621],[100.1033,13.9325]],[[100.0715,13.8771],[100.0652,13.8693],[100.068,13.8721],[100.0715,13.8771]],[[100.10210257879656,13.883622063037247],[100.0973,13.8828],[100.1017,13.8833],[100.10210257879656,13.883622063037247]],[[100.099,13.87],[100.0996,13.8724],[100.1017,13.8833],[100.099,13.87]],[[100.08662554378137,13.85685789180145],[100.0923,13.8547],[100.0876,13.857],[100.08662554378137,13.85685789180145]],[[100.1125,13.9497],[100.1131724137931,13.950820689655172],[100.1112469879518,13.949230120481928],[100.1125,13.9497]],[[100.14818369565218,14.079183127692913],[100.1471,14.0789],[100.1349,14.0644],[100.1382,14.0683],[100.14818369565218,14.079183127692913]],[[100.19043283582089,14.114085074626864],[100.1968,14.1155],[100.1999,14.1159],[100.192,14.1149],[100.19043283582089,14.114085074626864]],[[100.2101,14.0725],[100.2304,14.0791],[100.20924514514515,14.07239009009009],[100.2101,14.0725]],[[100.2209,14.0465],[100.21986422413794,14.048993534482758],[100.2205,14.042],[100.2209,14.0465]],[[100.2004,13.994],[100.20580638297872,14.010514042553202],[100.2033,14.005],[100.2004,13.994]],[[100.1831,13.9473],[100.1839,13.9551],[100.1868,13.9715],[100.1839,13.9597],[100.1831,13.9473]],[[100.2539,13.9228],[100.2291,13.9336],[100.2153,13.942],[100.2319,13.9318],[100.2539,13.9228]],[[100.23748000834725,13.900919115191986],[100.2524,13.9043],[100.2401,13.9022],[100.23748000834725,13.900919115191986]],[[100.2321,13.8997],[100.23422330799856,13.900181143684401],[100.2312908,13.900567],[100.2321,13.8997]],[[100.2094196812197,13.908651767151762],[100.2242,13.9015],[100.2147,13.9071],[100.2094196812197,13.908651767151762]],[[100.19255038520802,13.905864663584996],[100.1877,13.9111],[100.1921,13.9061],[100.19255038520802,13.905864663584996]],[[100.21811088664421,13.888058136924805],[100.21535720545278,13.889594401168445],[100.2166,13.8885],[100.21811088664421,13.888058136924805]],[[100.244,13.8459],[100.21631899827288,13.844399222797927],[100.223,13.8443],[100.244,13.8459]],[[100.2247,13.811],[100.224718754804,13.812256571867794],[100.2231,13.8091],[100.2247,13.811]],[[100.2107,13.8108],[100.2059,13.8101],[100.2231,13.8091],[100.2107,13.8108]],[[100.2478,13.7995],[100.2403,13.7974],[100.2359,13.795],[100.2478,13.7995]],[[100.21368960194964,13.696191307879772],[100.21090757097791,13.697040063091485],[100.2117,13.696],[100.21368960194964,13.696191307879772]],[[100.2261,13.7069],[100.2255,13.7042],[100.22484467213114,13.700486475409821],[100.2258,13.7017],[100.2261,13.7069]],[[100.1876,13.8124],[100.18751036960985,13.811543531827526],[100.18900579710143,13.813384057971001],[100.1876,13.8124]],[[100.19230568561872,13.81569397993311],[100.1981,13.8175],[100.1946,13.8173],[100.19230568561872,13.81569397993311]],[[100.1897733716475,13.764059642401035],[100.1916,13.7682],[100.19,13.7657],[100.1897733716475,13.764059642401035]],[[100.1861,13.7396],[100.20269936828801,13.757897030953822],[100.1911,13.7458],[100.1861,13.7396]],[[100.1633,13.7925],[100.1704,13.7821],[100.16287984546041,13.794079781068884],[100.1633,13.7925]],[[100.21788198757764,13.800708385093166],[100.20131648547144,13.803153073729987],[100.2103,13.801],[100.21788198757764,13.800708385093166]],[[100.18680443396227,13.804797924528291],[100.1867,13.8038],[100.18742558139535,13.803032558139538],[100.18680443396227,13.804797924528291]],[[100.1666,13.9105],[100.166,13.9066],[100.1684,13.9142],[100.1666,13.9105]],[[100.16443707000603,14.0636093995172],[100.1658,14.0636],[100.1738,14.0677],[100.16443707000603,14.0636093995172]],[[100.25924615384615,13.799776923076923],[100.26941379310328,13.799413793103454],[100.2602,13.7998],[100.25924615384615,13.799776923076923]],[[100.27303349753697,13.799262068965515],[100.27792614555256,13.798833962264153],[100.2769,13.7991],[100.27303349753697,13.799262068965515]],[[100.3002,13.7869],[100.2946,13.7941],[100.3015,13.7847],[100.3002,13.7869]],[[100.2634,13.715],[100.2601,13.7202],[100.2573,13.7228],[100.2634,13.715]],[[100.2504012169436,13.723973788907092],[100.24376558139534,13.7225588372093],[100.2499,13.7236],[100.2504012169436,13.723973788907092]],[[100.2545,13.7082],[100.2518,13.7031],[100.25162337736933,13.700839230327425],[100.2545,13.7082]],[[100.22833182579564,13.730343802345061],[100.23172527472529,13.72747692307691],[100.2299,13.7298],[100.22833182579564,13.730343802345061]],[[100.2849,13.7674],[100.2811,13.7529],[100.2834,13.7589],[100.2849,13.7674]],[[100.2272,13.8854],[100.22981259842518,13.885499212598425],[100.22605846153846,13.885733846153846],[100.2272,13.8854]],[[100.245,13.9764],[100.198,13.9623],[100.19509521265664,13.960816704335311],[100.245,13.9764]]]}},{"type":"Feature","properties":{"name_en":"Nonthaburi","name_th":"นนทบุรี"},"geometry":{"type":"Polygon","coordinates":[[[100.32,13.8215],[100.2762,13.9133],[100.2652,13.9201],[100.2709,13.9291],[100.2874,13.9455],[100.30674336213667,13.971645797329115],[100.2989,13.9621],[100.2872,13.9698],[100.2711,13.9866],[100.2691,13.9922],[100.2766,14.0005],[100.2664,14.008],[100.2736,14.031],[100.2744,14.07],[100.2782,14.0846],[100.2782,14.1016],[100.2808,14.1243],[100.2975,14.1387],[100.3021,14.1389],[100.3212,14.1287],[100.3364,14.1262],[100.3454,14.1139],[100.342,14.0934],[100.3332,14.0639],[100.3329,14.0538],[100.3352,14.044],[100.3436,14.0244],[100.3564,14.0004],[100.356,13.9983],[100.3638,13.9914],[100.38853636363635,13.985501198026784],[100.3861,13.9862],[100.3884,13.9907],[100.3911,13.9912],[100.4368,13.9787],[100.4554,13.966],[100.4605,13.9704],[100.4643,13.9707],[100.4805,13.9556],[100.4952,13.9392],[100.5014,13.936],[100.5077,13.9415],[100.5151,13.943],[100.5262,13.9412],[100.5363,13.9462],[100.5415,13.9549],[100.5507,13.9509],[100.5687,13.949],[100.5451,13.8489],[100.5371,13.8451],[100.5158,13.8258],[100.5103,13.824],[100.5078,13.8187],[100.5083,13.8165],[100.5151,13.8135],[100.5161,13.8114],[100.5019,13.7995],[100.4736,13.7888],[100.4687,13.7891],[100.4705,13.7926],[100.4671,13.7954],[100.4059,13.7999],[100.4014,13.8015],[100.3976,13.8004],[100.3307,13.8032],[100.32,13.8215]],[[100.35104109277177,13.940939009675583],[100.35104109277177,13.940939009675585],[100.3061,13.9707],[100.35104109277177,13.940939009675583]],[[100.3542,13.9882],[100.35500690846287,13.986283592400692],[100.356,13.9983],[100.3542,13.9882]],[[100.4421,13.9545],[100.44435747531737,13.952489139633256],[100.4273,13.9722],[100.4421,13.9545]],[[100.45335675675678,13.944472972972953],[100.4521,13.9464],[100.44690540540536,13.950219554849],[100.45335675675678,13.944472972972953]],[[100.45432659033078,13.936323104325652],[100.4551,13.9418],[100.45401907692307,13.943457415384628],[100.45432659033078,13.936323104325652]],[[100.45027731213872,13.886829479768776],[100.4496,13.8959],[100.4484,13.8998],[100.45027731213872,13.886829479768776]],[[100.4483,13.8811],[100.4502,13.8825],[100.45022737430168,13.884032960893856],[100.4483,13.8811]],[[100.4463,13.8689],[100.4491,13.861],[100.4527,13.8528],[100.4482,13.8661],[100.4463,13.8689]],[[100.4384,13.8698],[100.43704569536423,13.868987417218541],[100.4424,13.8701],[100.4384,13.8698]],[[100.4314,13.8656],[100.4291,13.8616],[100.43324463276838,13.866706779661028],[100.4314,13.8656]],[[100.42492128737963,13.850655752660957],[100.4237,13.8452],[100.42413558355835,13.842919591959173],[100.42492128737963,13.850655752660957]],[[100.4038,13.823],[100.4064,13.8242],[100.4254,13.8363],[100.4038,13.823]],[[100.40331538461486,13.823861538462472],[100.4138,13.8049],[100.4038,13.823],[100.40331538461486,13.823861538462472]],[[100.4208,13.8108],[100.42243433476395,13.813225965665243],[100.4138,13.8049],[100.4208,13.8108]],[[100.4317,13.8293],[100.4305,13.8311],[100.4254,13.8363],[100.4317,13.8293]],[[100.3325,13.8753],[100.3243,13.8727],[100.3346,13.8749],[100.3325,13.8753]],[[100.39964981238275,13.830378111319577],[100.3676,13.8164],[100.3861,13.8243],[100.39964981238275,13.830378111319577]],[[100.4015,13.8816],[100.41739194346286,13.870084098939959],[100.41,13.8764],[100.4015,13.8816]],[[100.356,13.9612],[100.3571,13.9737],[100.35645950603102,13.977512464101112],[100.356,13.9612]],[[100.3476,13.9365],[100.35024018691587,13.939905841121469],[100.3383,13.9261],[100.3476,13.9365]],[[100.3281,13.9055],[100.33216496218941,13.886942563917929],[100.32803684210526,13.908499999999949],[100.3281,13.9055]],[[100.4713,13.8471],[100.46424384965832,13.848023234624144],[100.4672,13.8468],[100.4713,13.8471]],[[100.4774,13.8708],[100.47826312178388,13.866740994854196],[100.4782,13.874],[100.4774,13.8708]],[[100.4894,13.8055],[100.5006,13.8168],[100.4936,13.8103],[100.4894,13.8055]],[[100.4453,13.8276],[100.44891243523317,13.828374093264248],[100.4381,13.8274],[100.4453,13.8276]],[[100.45644866385372,13.909535161744023],[100.46,13.9095],[100.467,13.9125],[100.45644866385372,13.909535161744023]],[[100.4678,13.9078],[100.46952731591449,13.905856769596193],[100.467,13.9125],[100.4678,13.9078]],[[100.47424009603841,13.9166150060024],[100.4776116605166,13.915916236162364],[100.4756,13.9167],[100.47424009603841,13.9166150060024]]]}},{"type":"Feature","properties":{"name_en":"Pathum Thani","name_th":"ปทุมธานี"},"geometry":{"type":"Polygon","coordinates":[[[100.4585,13.9691],[100.4554,13.966],[100.4538,13.9664],[100.4368,13.9787],[100.3901,13.9913],[100.3861,13.9862],[100.3682,13.9896],[100.3638,13.9914],[100.356,13.9983],[100.3564,14.0004],[100.3381,14.0353],[100.3329,14.0538],[100.335,14.0726],[100.3426,14.0959],[100.3454,14.1139],[100.3555,14.1124],[100.3733,14.1139],[100.4404,14.1129],[100.4551,14.1149],[100.4727,14.1101],[100.4828,14.1111],[100.4978,14.115],[100.5175,14.1269],[100.5222,14.1231],[100.5273,14.1223],[100.531,14.1183],[100.5437,14.115],[100.5495,14.1111],[100.5542,14.1117],[100.5548,14.1166],[100.5576,14.1183],[100.5619,14.1175],[100.5644,14.1206],[100.575,14.121],[100.5816,14.126],[100.606,14.1335],[100.6088,14.1335],[100.6162,14.128],[100.6189,14.1279],[100.6202,14.129],[100.6219,14.1418],[100.6996,14.1825],[100.745,14.2041],[100.7842,14.2246],[100.8925,14.2733],[100.8928,14.2505],[100.89439991052956,14.24310041380082],[100.9368,14.2629],[100.9529,14.272],[100.9511,14.2642],[100.9518,14.2594],[100.9471,14.2477],[100.9473,14.2355],[100.9159,14.2199],[100.9149,14.1826],[100.916,14.067],[100.9151,13.9443],[100.8259,13.9335],[100.8218,13.9357],[100.7926,13.9299],[100.7549,13.9175],[100.7299,13.9157],[100.7299,13.9187],[100.7214,13.9168],[100.7081,13.9169],[100.7063,13.9193],[100.7024,13.9191],[100.6991,13.9227],[100.6904,13.9246],[100.6908,13.9289],[100.6416,13.9306],[100.6411,13.9366],[100.6266,13.937],[100.6264,13.948],[100.6149,13.9535],[100.6106,13.9543],[100.606,13.9509],[100.6071,13.9447],[100.6052,13.9438],[100.5898,13.9504],[100.5755,13.9534],[100.5651,13.9487],[100.5582,13.949],[100.5466,13.9522],[100.5415,13.9549],[100.5363,13.9462],[100.5262,13.9412],[100.5241,13.9425],[100.5098,13.9424],[100.5034,13.9366],[100.5008,13.9364],[100.4952,13.9392],[100.4805,13.9556],[100.4629,13.9707],[100.4585,13.9691]],[[100.8019,14.1286],[100.8026992553271,14.058465345047619],[100.8016,14.2316],[100.8019,14.1286]],[[100.8459,14.0081],[100.84739585415298,14.042704092739054],[100.842,13.9361],[100.8459,14.0081]],[[100.54879087947882,14.101502931596077],[100.5494,14.1024],[100.54941354581673,14.103578486055804],[100.54879087947882,14.101502931596077]],[[100.5253,14.076],[100.52579482758621,14.074680459770127],[100.5252,14.0801],[100.5253,14.076]],[[100.528,14.0688],[100.5487,14.0528],[100.5562,14.0472],[100.5272568627451,14.070781699346398],[100.528,14.0688]],[[100.5458,14.0304],[100.5566,14.0405],[100.547,14.0323],[100.5458,14.0304]],[[100.5436,14.0291],[100.5371,14.02],[100.5458,14.0304],[100.5436,14.0291]],[[100.5708,14.0056],[100.5839,14.0126],[100.5788,14.0115],[100.5708,14.0056]],[[100.60228019930324,13.994316624807583],[100.6042,13.9946],[100.6160572065381,13.997172511144175],[100.60228019930324,13.994316624807583]],[[100.6649,14.006],[100.67021433447098,14.00689122379327],[100.64788063806381,14.003769306930693],[100.6649,14.006]],[[100.4633,14.0815],[100.45901767272721,14.08327825454548],[100.46509570224144,14.080330228254146],[100.4633,14.0815]],[[100.4996,14.0533],[100.4825,14.0552],[100.4877,14.0541],[100.4996,14.0533]],[[100.5303,13.9862],[100.5282,13.9807],[100.5338,13.9903],[100.5303,13.9862]],[[100.378,13.9975],[100.3794867807154,14.017757387247268],[100.3789,14.0165],[100.378,13.9975]],[[100.3814725,14.022012500000004],[100.3903,14.0348],[100.3838,14.027],[100.3814725,14.022012500000004]],[[100.4433,14.0151],[100.4403,14.0004],[100.4447,14.0172],[100.4433,14.0151]],[[100.4908,14.0252],[100.4958,14.0376],[100.4875,14.0173],[100.4904,14.0243],[100.5156,14.0113],[100.4908,14.0252]],[[100.4836,13.9841],[100.4825767318879,13.985987361184533],[100.4835,13.9813],[100.4836,13.9841]],[[100.4791,13.9924],[100.47677636761486,13.99437822757113],[100.48032649572649,13.990137796771137],[100.4791,13.9924]],[[100.4717,13.9987],[100.4569,14.0056],[100.4732516384665,13.997379010494747],[100.4717,13.9987]],[[100.5221,14.0306],[100.4995,14.0447],[100.4969,14.0463],[100.5221,14.0306]],[[100.51865212569317,14.094911645101664],[100.518,14.0956],[100.51707533952823,14.095473909935668],[100.51865212569317,14.094911645101664]],[[100.57098681811388,13.981295785383349],[100.57098681811388,13.98129578538335],[100.5416,13.9719],[100.57098681811388,13.981295785383349]],[[100.60408739405707,13.978902837955374],[100.60408739405707,13.978902837955376],[100.5735,13.9717],[100.60408739405707,13.978902837955374]],[[100.5637,13.9882],[100.55878347529813,13.99084735945485],[100.5599,13.9898],[100.5637,13.9882]],[[100.58052609970674,14.003451319648095],[100.5806,14.0048],[100.57979939485628,14.005676853252645],[100.58052609970674,14.003451319648095]],[[100.681,14.0087],[100.6997,14.0169],[100.67901840518714,14.00836768285747],[100.681,14.0087]],[[100.711,14.022],[100.72009999999929,14.026181081080754],[100.6997,14.0169],[100.711,14.022]],[[100.5693,14.0979],[100.5787,14.0972],[100.58542149232046,14.097891918327106],[100.58542039355993,14.0979],[100.5693,14.0979]],[[100.58372898761836,14.041397232337944],[100.5778,14.0383],[100.5823,14.04],[100.58372898761836,14.041397232337944]],[[100.58690330350997,14.045204679972466],[100.58530000000002,14.042933333333346],[100.5868,14.0444],[100.58690330350997,14.045204679972466]],[[100.809091265412,14.029274328358182],[100.7566,14.0123],[100.8018,14.0267],[100.809091265412,14.029274328358182]],[[100.75296505977623,14.040766872348595],[100.78953600000047,14.053781052631745],[100.7571,14.0424],[100.75296505977623,14.040766872348595]],[[100.8589,14.1506],[100.84712912770755,14.15050024684498],[100.8698,14.1506],[100.8589,14.1506]]]}},{"type":"Feature","properties":{"name_en":"Samut Prakan","name_th":"สมุทรปราการ"},"geometry":{"type":"Polygon","coordinates":[[[100.4555,13.6043],[100.4647,13.6048],[100.468,13.6028],[100.4687,13.5951],[100.4708,13.5927],[100.4745,13.5941],[100.4753,13.5987],[100.4819,13.607],[100.4937,13.6029],[100.502,13.6024],[100.5055,13.6039],[100.5104,13.6006],[100.5124,13.601],[100.513,13.6028],[100.5145,13.6019],[100.52306396396396,13.604107207207209],[100.5216,13.6044],[100.5177,13.6126],[100.5157,13.628],[100.5186,13.6334],[100.5186,13.6724],[100.5227,13.6786],[100.5356,13.6686],[100.5409,13.6681],[100.5455,13.6693],[100.5508,13.6745],[100.5535,13.6817],[100.5524,13.6974],[100.5537,13.702],[100.5564,13.7048],[100.5615,13.7058],[100.5733,13.7019],[100.5874,13.6934],[100.5905,13.686],[100.5893,13.68],[100.5811,13.6672],[100.5937,13.663],[100.6457,13.6512],[100.6492,13.6513],[100.6558,13.6697],[100.6574,13.6705],[100.6607,13.6686],[100.6675,13.6745],[100.6705,13.6719],[100.668,13.6672],[100.6686,13.6653],[100.6855,13.6578],[100.6999,13.6548],[100.7006,13.6611],[100.7133,13.695],[100.7138,13.7017],[100.7112,13.717],[100.7262,13.7177],[100.7636,13.7151],[100.7871,13.7153],[100.845,13.6954],[100.8602,13.6884],[100.862,13.6961],[100.8804,13.6881],[100.9549,13.6629],[100.9567,13.6601],[100.94323891594658,13.650077879025925],[100.9495,13.6547],[100.9494,13.6512],[100.9538,13.6464],[100.9638,13.643],[100.9611,13.6313],[100.9451,13.6184],[100.925,13.5927],[100.9201,13.5934],[100.9089,13.5907],[100.90847574047955,13.592927362482374],[100.9084,13.5799],[100.9154,13.576],[100.9162,13.5694],[100.906,13.5536],[100.8916,13.5632],[100.8911,13.5574],[100.8878,13.5559],[100.8855,13.5505],[100.8813,13.5475],[100.8736,13.5228],[100.8751,13.5183],[100.8729,13.5117],[100.8739,13.4965],[100.8719,13.4884],[100.8674,13.4886],[100.8536,13.4945],[100.8502,13.4788],[100.8489,13.4783],[100.8475,13.4806],[100.8458,13.4794],[100.8334,13.4814],[100.8258,13.4844],[100.8219,13.4867],[100.8217,13.49],[100.8194,13.4875],[100.8145,13.4869],[100.8114,13.4903],[100.8047,13.4878],[100.7969,13.4919],[100.7939,13.4911],[100.7931,13.4928],[100.7792,13.4944],[100.7761,13.4906],[100.7739,13.4942],[100.7711,13.4936],[100.7656,13.4961],[100.7644,13.4942],[100.7597,13.4944],[100.7572,13.4969],[100.755,13.4964],[100.7514,13.4986],[100.7417,13.4986],[100.7244,13.5019],[100.7228,13.5006],[100.7197,13.5019],[100.7172,13.5011],[100.6972,13.5058],[100.6819,13.5061],[100.6531,13.5164],[100.6325,13.52],[100.6243,13.525],[100.6209,13.5302],[100.6089,13.5411],[100.5958,13.5497],[100.5839,13.5536],[100.5792,13.5589],[100.5783,13.5689],[100.5908,13.5825],[100.5953,13.5914],[100.5961,13.6014],[100.5931,13.6086],[100.5819,13.6139],[100.5653,13.6136],[100.5605,13.6156],[100.5584,13.6155],[100.5578,13.6117],[100.5628,13.6097],[100.5764,13.6094],[100.5867,13.6069],[100.5891,13.6039],[100.59,13.5961],[100.5854,13.5917],[100.5673,13.5921],[100.5856,13.5908],[100.575,13.5747],[100.5761,13.5714],[100.5733,13.5653],[100.5739,13.5603],[100.5883,13.5342],[100.585,13.5258],[100.5725,13.5144],[100.5697,13.5161],[100.5672,13.5136],[100.5653,13.5144],[100.5622,13.5131],[100.5603,13.5144],[100.5497,13.5108],[100.5408,13.5108],[100.5325,13.5081],[100.5314,13.5058],[100.5294,13.5094],[100.5231,13.5067],[100.5205,13.5106],[100.5203,13.5081],[100.5139,13.5061],[100.5072,13.5067],[100.4953,13.5036],[100.4914,13.5042],[100.4886,13.5008],[100.4867,13.5033],[100.4803,13.5003],[100.4778,13.5017],[100.4742,13.5011],[100.4717,13.5044],[100.4606,13.4989],[100.4578,13.5019],[100.4532,13.5016],[100.4528,13.5105],[100.4453,13.5549],[100.4477,13.5847],[100.4555,13.6043]],[[100.58069045287638,13.66693671970624],[100.58097287234042,13.666818617021274],[100.5811,13.6672],[100.58069045287638,13.66693671970624]],[[100.6306,13.6281],[100.63094511385599,13.627846239811781],[100.6457,13.6512],[100.6306,13.6281]],[[100.86002304147466,13.687487266553477],[100.8638,13.6854],[100.8602,13.6884],[100.86002304147466,13.687487266553477]],[[100.6374,13.6231],[100.6487,13.6186],[100.6337417996171,13.62578985322272],[100.6374,13.6231]],[[100.67093798219584,13.608135905044481],[100.6773,13.6242],[100.6717,13.6122],[100.67093798219584,13.608135905044481]],[[100.6699,13.6026],[100.674,13.5985],[100.67000730643403,13.603172300981468],[100.6699,13.6026]],[[100.6043,13.6318],[100.6227,13.6203],[100.64522269530363,13.606570959691448],[100.6043,13.6318]],[[100.62734975922953,13.596084911717496],[100.6323,13.5979],[100.63610100840337,13.601269075630261],[100.62734975922953,13.596084911717496]],[[100.6167,13.5995],[100.6263,13.5957],[100.62650357142857,13.595774642857144],[100.6167,13.5995]],[[100.59975717916137,13.605181575603567],[100.6001,13.6041],[100.60060344827586,13.603851724137929],[100.59975717916137,13.605181575603567]],[[100.5875,13.6244],[100.5904,13.6145],[100.58777118181818,13.624528454545452],[100.5875,13.6244]],[[100.56505709156194,13.679538779174143],[100.5686,13.6829],[100.565,13.6803],[100.56505709156194,13.679538779174143]],[[100.5251,13.6037],[100.52451732283464,13.603816535433072],[100.52595921625544,13.601165312046428],[100.5251,13.6037]],[[100.52833216216216,13.5986127027027],[100.52760744505494,13.598134697802195],[100.5304,13.593],[100.52833216216216,13.5986127027027]],[[100.5543,13.61743157894737],[100.5529,13.6164],[100.55308610271904,13.616281570996978],[100.5543,13.61743157894737]],[[100.5237,13.5706],[100.53260530973452,13.580119469026549],[100.5292,13.5775],[100.5237,13.5706]],[[100.5274,13.5603],[100.52793036244802,13.564808080808085],[100.5273,13.5646],[100.5274,13.5603]],[[100.4785,13.5156],[100.46161742002332,13.512249760393733],[100.51504605647513,13.520242336903598],[100.4785,13.5156]],[[100.5209,13.5271],[100.51550923152068,13.520311624877891],[100.5161,13.5204],[100.5209,13.5271]],[[100.53248600746268,13.532924626865666],[100.53217476635514,13.532445794392526],[100.5325,13.5326],[100.53248600746268,13.532924626865666]],[[100.58880351031154,13.630497981570867],[100.5907422222222,13.63787999999993],[100.589,13.632],[100.58766037441498,13.63143822152886],[100.58880351031154,13.630497981570867]],[[100.5449,13.6595],[100.5537,13.6559],[100.55499523809522,13.65569047619048],[100.5449,13.6595]],[[100.55736608695655,13.655306956521736],[100.5605,13.6548],[100.56101707317073,13.654929268292683],[100.55736608695655,13.655306956521736]],[[100.5573174874372,13.620290251256295],[100.5587,13.6216],[100.5659954767726,13.633202444987749],[100.5631,13.6305],[100.5573174874372,13.620290251256295]],[[100.56943516483517,13.635865384615387],[100.5691,13.6361],[100.56833109243699,13.635382352941186],[100.56943516483517,13.635865384615387]],[[100.5984,13.6465],[100.59371020999276,13.64789695872556],[100.59371020999276,13.647896958725559],[100.5984,13.6465]],[[100.6239,13.6306],[100.62808408163266,13.6290387755102],[100.5984,13.6465],[100.6239,13.6306]],[[100.5852,13.6653],[100.58425153846153,13.665447538461539],[100.5866984375,13.664424289772725],[100.5852,13.6653]],[[100.5929,13.6608],[100.59229915182358,13.661151145038167],[100.59293113367174,13.660297969543148],[100.5929,13.6608]],[[100.55503103448275,13.668653448275862],[100.55464731861198,13.66922902208202],[100.5532121495327,13.66808504672897],[100.55503103448275,13.668653448275862]],[[100.5694,13.6746],[100.5653,13.6763],[100.561,13.6765],[100.5694,13.6746]],[[100.5568,13.666],[100.55626206896551,13.666806896551725],[100.55674388489209,13.665546762589928],[100.5568,13.666]],[[100.6873,13.559],[100.69072646153847,13.558852307692307],[100.68629178082192,13.559608219178083],[100.6873,13.559]],[[100.7039,13.5631],[100.69788245614035,13.558543859649124],[100.6989,13.5585],[100.7039,13.5631]],[[100.7037,13.5699],[100.7027,13.5684],[100.70433321596244,13.569884741784039],[100.7037,13.5699]],[[100.72651289640592,13.600116067653286],[100.72624415011036,13.59985187637968],[100.7265,13.6],[100.72651289640592,13.600116067653286]],[[100.7265,13.6111],[100.72667619047618,13.601585714285715],[100.7267,13.6018],[100.7265,13.6111]],[[100.7291,13.6207],[100.72909020452099,13.621361194833153],[100.7265,13.6111],[100.7291,13.6207]],[[100.77434256684492,13.59554449197861],[100.7587,13.5985],[100.7682,13.5957],[100.77434256684492,13.59554449197861]],[[100.7804,13.5944],[100.77577492638731,13.595273861834656],[100.77437915376677,13.594302889576884],[100.7804,13.5944]],[[100.7866,13.6127],[100.7884,13.6198],[100.7804,13.5944],[100.7866,13.6127]],[[100.7707,13.587],[100.7714,13.5836],[100.7709,13.5874],[100.77411274787535,13.594117563739374],[100.7707,13.587]],[[100.76411382793451,13.557905607802159],[100.765640651289,13.564687544097689],[100.764,13.5593],[100.76411382793451,13.557905607802159]],[[100.80485497382199,13.542384816753925],[100.7978,13.5469],[100.8033,13.5425],[100.80485497382199,13.542384816753925]],[[100.80587387387388,13.542673873873872],[100.80553448275862,13.54233448275862],[100.806,13.5423],[100.80587387387388,13.542673873873872]],[[100.8237829032258,13.564542580645162],[100.8107,13.5693],[100.81053978828253,13.569083573644829],[100.8214,13.5646],[100.8237829032258,13.564542580645162]],[[100.82982721712538,13.564547094801224],[100.82922984749455,13.564411328976034],[100.8297,13.5644],[100.82982721712538,13.564547094801224]],[[100.83274533029612,13.569293166287004],[100.83264687054026,13.567807319062185],[100.8329,13.5681],[100.83274533029612,13.569293166287004]],[[100.83488156956005,13.57581629013079],[100.83340833333332,13.57929848484849],[100.83327294117646,13.577255294117638],[100.83488156956005,13.57581629013079]],[[100.8337,13.5837],[100.83365286050996,13.582988622241258],[100.8365,13.5924],[100.8337,13.5837]],[[100.89902168840082,13.640765380919698],[100.8932,13.6429],[100.89902168840082,13.640765380919696],[100.89902168840082,13.640765380919698]],[[100.9013,13.6498],[100.8998909574468,13.643694148936138],[100.90176719576719,13.650015628815627],[100.9013,13.6498]],[[100.9065,13.6522],[100.90409801324503,13.651091390728476],[100.9085965317919,13.651716184971098],[100.9065,13.6522]],[[100.9104,13.6513],[100.9094747983871,13.651513508064516],[100.9166465020576,13.644036625514415],[100.9104,13.6513]],[[100.919,13.6413],[100.91866833558863,13.641685656292282],[100.91889821428572,13.640628214285721],[100.919,13.6413]],[[100.90849346199292,13.595975462780626],[100.90916135458167,13.597801035856566],[100.9085,13.5971],[100.90849346199292,13.595975462780626]],[[100.62435,13.592612499999998],[100.6239,13.5919],[100.6273,13.5904],[100.62435,13.592612499999998]],[[100.61998028251914,13.574582342554452],[100.6195,13.574],[100.61974801235046,13.573921265920493],[100.61998028251914,13.574582342554452]],[[100.68883811461512,13.533957443201084],[100.68919428374656,13.533831060606062],[100.68842802359883,13.535663421828882],[100.68883811461512,13.533957443201084]],[[100.7779,13.5198],[100.77823037974683,13.519196202531647],[100.77802272727273,13.521272727272722],[100.7779,13.5198]],[[100.7781524390244,13.52282926829268],[100.7802,13.5255],[100.7782,13.5234],[100.7781524390244,13.52282926829268]],[[100.83862420480993,13.571057796741664],[100.8404,13.5688],[100.8486,13.5643],[100.83862420480993,13.571057796741664]],[[100.8477,13.5557],[100.85023846153845,13.552315384615383],[100.8504,13.5528],[100.8477,13.5557]],[[100.84981846153846,13.551055384615395],[100.845,13.5424],[100.8493,13.5495],[100.84981846153846,13.551055384615395]],[[100.8588,13.5462],[100.85886953642384,13.546246357615894],[100.8493,13.5495],[100.8588,13.5462]],[[100.8566,13.5415],[100.85702753623188,13.541162471395884],[100.8588,13.5462],[100.8566,13.5415]],[[100.85781507798961,13.540540727902943],[100.8585,13.54],[100.86197849829351,13.539361092150171],[100.85781507798961,13.540540727902943]],[[100.8629989769821,13.539173657289002],[100.8634,13.5391],[100.8672,13.5423],[100.8629989769821,13.539173657289002]],[[100.7915,13.5014],[100.7846,13.5078],[100.79123714285714,13.500874285714286],[100.7915,13.5014]],[[100.7856,13.5144],[100.7854170598911,13.514403811252269],[100.7856,13.5123],[100.7856,13.5144]],[[100.81364084158416,13.530991336633662],[100.8134,13.5302],[100.8184,13.5197],[100.81364084158416,13.530991336633662]],[[100.8212,13.5328],[100.8141,13.5325],[100.81391047510017,13.531877275329135],[100.8212,13.5328]],[[100.6864,13.5441],[100.68721043428133,13.54072859338971],[100.68727339705296,13.553572998805139],[100.6864,13.5441]],[[100.86338553546592,13.549663977746864],[100.86140689655174,13.547937931034495],[100.863,13.549],[100.86338553546592,13.549663977746864]],[[100.8648856361149,13.554968809849486],[100.86414259043174,13.550967794632445],[100.8648,13.5521],[100.8648856361149,13.554968809849486]],[[100.86476315789474,13.5589894736842],[100.86498371040723,13.558254298642561],[100.865,13.5588],[100.86476315789474,13.5589894736842]],[[100.87176760025461,13.57316747294713],[100.87172088469906,13.572015155910083],[100.8719,13.5721],[100.87176760025461,13.57316747294713]],[[100.89370436507937,13.626529761904765],[100.8925798816568,13.625642011834321],[100.893,13.6256],[100.89370436507937,13.626529761904765]],[[100.89803806133628,13.637451314348375],[100.8945141039823,13.627598617256641],[100.8955,13.6289],[100.89803806133628,13.637451314348375]],[[100.9185,13.638],[100.91867757009345,13.639171962616812],[100.9173114537445,13.637464317180623],[100.9185,13.638]],[[100.7187427901995,13.673920096398444],[100.71463003533572,13.661365371024813],[100.7191,13.6738],[100.7187427901995,13.673920096398444]],[[100.71358,13.658159999999995],[100.7132,13.657],[100.7125,13.6398],[100.71358,13.658159999999995]],[[100.7179,13.6271],[100.72596608260326,13.624284480600746],[100.7211,13.6269],[100.7179,13.6271]],[[100.72867078986587,13.622830700447096],[100.7290890909091,13.621436363636365],[100.72907162591004,13.62261525107336],[100.72867078986587,13.622830700447096]],[[100.7612488760139,13.653544264194668],[100.7576,13.6515],[100.7469751306165,13.645245036572623],[100.7612488760139,13.653544264194668]],[[100.76229830704118,13.653628895729126],[100.7862,13.6515],[100.7669,13.654],[100.76229830704118,13.653628895729126]],[[100.78620538336051,13.651240522022814],[100.7946,13.6704],[100.7862,13.6515],[100.78620538336051,13.651240522022814]],[[100.7514,13.7044],[100.7471687453043,13.694305334335116],[100.75238243911905,13.705261647424074],[100.7514,13.7044]],[[100.74641677419355,13.690652903225761],[100.7455,13.6862],[100.74607910562838,13.681535851966093],[100.74641677419355,13.690652903225761]],[[100.74876299212599,13.659919685039304],[100.7492,13.6564],[100.74938157894736,13.65629407894737],[100.74876299212599,13.659919685039304]],[[100.89878040364583,13.659404101562496],[100.8987,13.6592],[100.9058,13.6545],[100.89878040364583,13.659404101562496]],[[100.90135739505688,13.662947234209492],[100.9,13.6625],[100.89916398713828,13.660377813504835],[100.90135739505688,13.662947234209492]]]}},{"type":"Feature","properties":{"name_en":"Samut Sakhon","name_th":"สมุทรสาคร"},"geometry":{"type":"Polygon","coordinates":[[[100.0789,13.4371],[100.0736,13.4565],[100.0543,13.4847],[100.0439,13.4971],[100.0429,13.5016],[100.03,13.5069],[100.0286,13.5183],[100.0324,13.5208],[100.0312,13.5288],[100.0413,13.5348],[100.0444,13.5386],[100.0436,13.5563],[100.0396,13.567],[100.0376,13.5784],[100.0385,13.5883],[100.0394,13.5908],[100.0434,13.5924],[100.0431,13.595],[100.0385,13.6039],[100.0325,13.6106],[100.0402,13.6118],[100.0477,13.6148],[100.0497,13.6174],[100.0548,13.6177],[100.0545,13.6273],[100.0581,13.6308],[100.0651,13.6304],[100.0701,13.6371],[100.0703,13.6438],[100.0673,13.6498],[100.0723,13.6519],[100.0949,13.6468],[100.1046,13.6485],[100.1129,13.654],[100.1312,13.6769],[100.1374,13.6822],[100.1565,13.6833],[100.1662,13.6875],[100.1694,13.6836],[100.17544957002457,13.680770362407861],[100.1778,13.6879],[100.1813,13.6884],[100.1866,13.6794],[100.1994,13.6803],[100.215,13.6845],[100.2162,13.6865],[100.2204,13.6818],[100.2267,13.6687],[100.2435,13.6774],[100.2447,13.6744],[100.2606,13.6839],[100.26699559471366,13.680997797356826],[100.2758,13.6854],[100.2791,13.6919],[100.284,13.6924],[100.2871,13.71],[100.2968,13.7154],[100.3123,13.7195],[100.3213,13.7201],[100.3245,13.7219],[100.324,13.7267],[100.3321,13.7327],[100.3357,13.7285],[100.3356,13.718],[100.3353,13.714],[100.3316,13.7121],[100.3316,13.6956],[100.3346,13.6807],[100.3393,13.6742],[100.3423,13.6591],[100.3409,13.6561],[100.3401,13.6402],[100.3417,13.638],[100.3497,13.64],[100.3563,13.6393],[100.3621,13.6332],[100.371,13.6286],[100.3774,13.6181],[100.3795,13.6079],[100.3796,13.5933],[100.3822,13.59],[100.377,13.585],[100.3851,13.5877],[100.3911,13.5699],[100.3922,13.5616],[100.3953,13.5566],[100.4117,13.559],[100.4176,13.5616],[100.4185,13.5596],[100.4155,13.5499],[100.4209,13.5439],[100.4198,13.5399],[100.4138,13.5359],[100.4131,13.5272],[100.4052,13.5108],[100.4065,13.5031],[100.4058,13.4956],[100.4086,13.4931],[100.3933,13.4906],[100.3872,13.4931],[100.3864,13.4914],[100.3797,13.4889],[100.3728,13.4897],[100.3624,13.4872],[100.3414,13.4856],[100.3308,13.4878],[100.3297,13.4861],[100.3275,13.4864],[100.3031,13.4947],[100.303,13.5111],[100.3028,13.4947],[100.2817,13.5061],[100.2772,13.5158],[100.267,13.5272],[100.2675,13.53],[100.2775,13.5336],[100.2789,13.5372],[100.2778,13.5405],[100.2767,13.5417],[100.269,13.5413],[100.2758,13.5407],[100.2772,13.5381],[100.2758,13.5347],[100.2667,13.5314],[100.2636,13.5273],[100.26460937912813,13.522589564068697],[100.2717,13.5147],[100.2753,13.5075],[100.2714,13.4925],[100.2675,13.4858],[100.2611,13.4803],[100.2458,13.4725],[100.2442,13.4739],[100.2381,13.4722],[100.2364,13.4731],[100.2347,13.4708],[100.2325,13.4719],[100.2275,13.4683],[100.2242,13.4697],[100.2239,13.4672],[100.2209,13.4658],[100.2183,13.4669],[100.2158,13.4642],[100.2144,13.4656],[100.2111,13.465],[100.2086,13.4619],[100.2061,13.4636],[100.2025,13.4611],[100.1964,13.4611],[100.1942,13.4589],[100.1889,13.4592],[100.1864,13.4572],[100.18489935372683,13.466745777682075],[100.1859,13.4578],[100.1842,13.4567],[100.1572,13.4494],[100.1483,13.4854],[100.1569,13.4492],[100.0796,13.4249],[100.0789,13.4371]],[[100.0676,13.5681],[100.0975,13.5831],[100.0436,13.5563],[100.0676,13.5681]],[[100.3537,13.5762],[100.3251,13.5644],[100.377,13.585],[100.3537,13.5762]],[[100.31723574818096,13.584272034166384],[100.3176,13.5827],[100.3251,13.5644],[100.31723574818096,13.584272034166384]],[[100.2778,13.5405],[100.2815,13.5423],[100.2965,13.5499],[100.2778,13.5405]],[[100.26,13.5338],[100.2728,13.5601],[100.2598,13.5334],[100.2636,13.5273],[100.26,13.5338]],[[100.1713,13.6752],[100.1748,13.6788],[100.17529977905436,13.680315996464874],[100.1713,13.6752]],[[100.2092,13.6416],[100.2129,13.6425],[100.20559229681979,13.64241300353357],[100.2092,13.6416]],[[100.1707,13.6214],[100.13673544303798,13.603496202531648],[100.2092,13.6416],[100.1707,13.6214]],[[100.1777,13.5686],[100.1808,13.5659],[100.176,13.5706],[100.1777,13.5686]],[[100.28368717707039,13.558231305428219],[100.2791,13.5728],[100.27827013539653,13.574138491295924],[100.28368717707039,13.558231305428219]],[[100.13198117697966,13.601024738826732],[100.1215,13.6148],[100.13198117697966,13.60102473882673],[100.13198117697966,13.601024738826732]],[[100.16631392045454,13.527230184659091],[100.1712,13.5277],[100.16631392045454,13.527230184659093],[100.16631392045454,13.527230184659091]],[[100.16903036760787,13.522059882791696],[100.1665207444746,13.526316711903835],[100.167,13.5242],[100.16903036760787,13.522059882791696]],[[100.17995682792407,13.50352639314145],[100.1772532671197,13.508112179822271],[100.1775,13.5062],[100.17995682792407,13.50352639314145]],[[100.1818,13.5004],[100.18097915982246,13.501792311187227],[100.18232341549296,13.489774665492938],[100.1818,13.5004]],[[100.1302,13.5163],[100.1363,13.5237],[100.1265,13.5128],[100.1302,13.5163]],[[100.15729106813997,13.546695303867402],[100.15719487666034,13.545137001897531],[100.1576,13.5456],[100.15729106813997,13.546695303867402]],[[100.1543,13.572],[100.1542,13.565],[100.1554,13.5746],[100.1543,13.572]],[[100.2476,13.6632],[100.2466666061706,13.66383067150635],[100.2507,13.6561],[100.2476,13.6632]],[[100.2527,13.6556],[100.2567,13.6554],[100.2507,13.6561],[100.2527,13.6556]],[[100.2661,13.5907],[100.2635,13.6002],[100.26599372693727,13.586484501845039],[100.2661,13.5907]],[[100.26,13.6381],[100.25894490468345,13.638772934808197],[100.2635,13.6002],[100.26,13.6381]],[[100.21689387755102,13.63850612244898],[100.2178,13.6376],[100.2215,13.6376],[100.21689387755102,13.63850612244898]],[[100.2298,13.6431],[100.2493,13.6501],[100.232,13.6446],[100.2215,13.6376],[100.2298,13.6431]],[[100.2324,13.6413],[100.2473,13.6462],[100.2629,13.6519],[100.2324,13.6413]],[[100.21437016248153,13.622811225997058],[100.2143,13.6266],[100.2137,13.6241],[100.21437016248153,13.622811225997058]],[[100.2280763948498,13.605606866952828],[100.2286,13.611],[100.227,13.6196],[100.2280763948498,13.605606866952828]],[[100.22574353369764,13.599486156648457],[100.2276,13.6007],[100.22772385466034,13.60197570300157],[100.22574353369764,13.599486156648457]],[[100.28337941680961,13.614076157804464],[100.2858,13.6152],[100.2959,13.6239],[100.28337941680961,13.614076157804464]],[[100.32744139054863,13.627744758283544],[100.3146,13.6231],[100.3087,13.622],[100.3169,13.6235],[100.32744139054863,13.627744758283544]],[[100.3157,13.5909],[100.3158700234803,13.590166214453467],[100.3169,13.6235],[100.3157,13.5909]],[[100.3224,13.6485],[100.3357,13.6527],[100.3169958975699,13.64827245884505],[100.3224,13.6485]],[[100.3334,13.6358],[100.33215889781859,13.633793111366238],[100.33441049180328,13.63646360655738],[100.3334,13.6358]],[[100.3019,13.6822],[100.2995,13.6809],[100.2899,13.6755],[100.3019,13.6822]]]}}]}