{
"type": "FeatureCollection",
"name": "aoi_north_thailand",
"crs": { "type": "name", "properties": { "name": "urn:ogc:def:crs:OGC:1.3:CRS84" } },
"features": [
{ "type": "Feature", "properties": { "region": "north_thailand_8_provinces" }, "geometry": { "type": "Polygon", "coordinates": [ [ [ 98.8979, 17.527 ], [ 98.8952, 17.5189 ], [ 98.89, 17.5156 ], [ 98.89, 17.5115 ], [ 98.8839, 17.509 ], [ 98.8827, 17.4999 ], [ 98.8804, 17.4963 ], [ 98.8814, 17.49 ], [ 98.8729, 17.4912 ], [ 98.8717, 17.4999 ], [ 98.8597, 17.5101 ], [ 98.8463, 17.5116 ], [ 98.8422, 17.5136 ], [ 98.8349, 17.5102 ], [ 98.8318, 17.5135 ], [ 98.8236, 17.5106 ], [ 98.8169, 17.5056 ], [ 98.817, 17.4988 ], [ 98.7978, 17.4984 ], [ 98.7919, 17.494 ], [ 98.7823, 17.4926 ], [ 98.7788, 17.4883 ], [ 98.7616, 17.4809 ], [ 98.7568, 17.4744 ], [ 98.7559, 17.4708 ], [ 98.7516, 17.467 ], [ 98.748, 17.4658 ], [ 98.7425, 17.4667 ], [ 98.7351, 17.4632 ], [ 98.7186, 17.4629 ], [ 98.7148, 17.4519 ], [ 98.7099, 17.4517 ], [ 98.7085, 17.4486 ], [ 98.7042, 17.4456 ], [ 98.702, 17.4347 ], [ 98.6962, 17.4294 ], [ 98.6923, 17.4227 ], [ 98.692, 17.4308 ], [ 98.6896, 17.4374 ], [ 98.6824, 17.4451 ], [ 98.6846, 17.4522 ], [ 98.6839, 17.4597 ], [ 98.6894, 17.4718 ], [ 98.6942, 17.4755 ], [ 98.7014, 17.4773 ], [ 98.7061, 17.4841 ], [ 98.7048, 17.4917 ], [ 98.707, 17.5 ], [ 98.7014, 17.5048 ], [ 98.6978, 17.513 ], [ 98.703, 17.5237 ], [ 98.7025, 17.5325 ], [ 98.7049, 17.5405 ], [ 98.7034, 17.554 ], [ 98.6975, 17.5709 ], [ 98.6945, 17.5855 ], [ 98.6869, 17.5903 ], [ 98.6836, 17.5955 ], [ 98.6847, 17.6012 ], [ 98.6911, 17.6128 ], [ 98.6899, 17.6238 ], [ 98.6933, 17.6292 ], [ 98.686, 17.6427 ], [ 98.6865, 17.649 ], [ 98.6906, 17.6543 ], [ 98.6852, 17.6614 ], [ 98.6851, 17.6635 ], [ 98.6868, 17.6664 ], [ 98.6974, 17.6652 ], [ 98.7244, 17.6744 ], [ 98.7323, 17.6807 ], [ 98.7394, 17.6819 ], [ 98.7462, 17.6881 ], [ 98.7471, 17.691 ], [ 98.7456, 17.7001 ], [ 98.7409, 17.7067 ], [ 98.7262, 17.7148 ], [ 98.7251, 17.7262 ], [ 98.7163, 17.7332 ], [ 98.7095, 17.736 ], [ 98.7049, 17.7418 ], [ 98.7032, 17.7458 ], [ 98.706, 17.7548 ], [ 98.7057, 17.7601 ], [ 98.6993, 17.7654 ], [ 98.6954, 17.7731 ], [ 98.688607452339653, 17.779451473136955 ], [ 98.6919, 17.7753 ], [ 98.69, 17.7652 ], [ 98.6787, 17.7563 ], [ 98.6693, 17.7519 ], [ 98.666, 17.7473 ], [ 98.6507, 17.7428 ], [ 98.6411, 17.7352 ], [ 98.6388, 17.7353 ], [ 98.6344, 17.7429 ], [ 98.6292, 17.7579 ], [ 98.6303, 17.765 ], [ 98.6283, 17.7711 ], [ 98.6236, 17.7768 ], [ 98.6148, 17.7784 ], [ 98.6098, 17.7831 ], [ 98.6052, 17.7922 ], [ 98.5985, 17.8008 ], [ 98.5914, 17.8035 ], [ 98.5917, 17.801 ], [ 98.5899, 17.7987 ], [ 98.5848, 17.7997 ], [ 98.582, 17.8055 ], [ 98.574, 17.8083 ], [ 98.5646, 17.7951 ], [ 98.5612, 17.7944 ], [ 98.5517, 17.802 ], [ 98.5457, 17.8092 ], [ 98.5316, 17.8135 ], [ 98.5238, 17.8219 ], [ 98.5207, 17.8229 ], [ 98.5156, 17.8202 ], [ 98.5169, 17.8162 ], [ 98.512, 17.8113 ], [ 98.4981, 17.8142 ], [ 98.4957, 17.8122 ], [ 98.4939, 17.8052 ], [ 98.4957, 17.7957 ], [ 98.5035, 17.7933 ], [ 98.5089, 17.7879 ], [ 98.5117, 17.7872 ], [ 98.5113, 17.7705 ], [ 98.5078, 17.7685 ], [ 98.5054, 17.7576 ], [ 98.5075, 17.7509 ], [ 98.5188, 17.7348 ], [ 98.5188, 17.7271 ], [ 98.5209, 17.7235 ], [ 98.5223, 17.7138 ], [ 98.5256, 17.7098 ], [ 98.5268, 17.7051 ], [ 98.5236, 17.6956 ], [ 98.5234, 17.6814 ], [ 98.5245, 17.6715 ], [ 98.5328, 17.6459 ], [ 98.5338, 17.6383 ], [ 98.5307, 17.6321 ], [ 98.5335, 17.6195 ], [ 98.5408, 17.6159 ], [ 98.5643, 17.6142 ], [ 98.5809, 17.5956 ], [ 98.5873, 17.5781 ], [ 98.5681, 17.5718 ], [ 98.5508, 17.5623 ], [ 98.5458, 17.5581 ], [ 98.537, 17.5451 ], [ 98.5362, 17.5423 ], [ 98.5378, 17.5392 ], [ 98.5288, 17.535 ], [ 98.5256, 17.5218 ], [ 98.5268, 17.5181 ], [ 98.5258, 17.5147 ], [ 98.5246, 17.5128 ], [ 98.5219, 17.5128 ], [ 98.5203, 17.509 ], [ 98.5256, 17.4949 ], [ 98.5203, 17.4829 ], [ 98.5202, 17.4767 ], [ 98.53, 17.4518 ], [ 98.5352, 17.449 ], [ 98.5424, 17.4485 ], [ 98.5466, 17.4466 ], [ 98.5525, 17.4421 ], [ 98.5598, 17.4304 ], [ 98.5597, 17.4271 ], [ 98.5574, 17.4238 ], [ 98.5583, 17.4172 ], [ 98.5553, 17.4088 ], [ 98.5562, 17.3939 ], [ 98.5386, 17.3615 ], [ 98.5445, 17.354 ], [ 98.549, 17.3516 ], [ 98.5541, 17.353 ], [ 98.559, 17.3523 ], [ 98.5628, 17.3496 ], [ 98.5624, 17.3464 ], [ 98.5586, 17.3437 ], [ 98.5556, 17.336 ], [ 98.5616, 17.3189 ], [ 98.5614, 17.3165 ], [ 98.5571, 17.3115 ], [ 98.5593, 17.2976 ], [ 98.5582, 17.2937 ], [ 98.5588, 17.2916 ], [ 98.5672, 17.2918 ], [ 98.576, 17.2978 ], [ 98.5784, 17.2978 ], [ 98.5789, 17.2914 ], [ 98.5756, 17.2834 ], [ 98.5685, 17.2838 ], [ 98.5529, 17.2796 ], [ 98.5466, 17.2807 ], [ 98.5306, 17.2727 ], [ 98.5188, 17.279 ], [ 98.5036, 17.2775 ], [ 98.4979, 17.2737 ], [ 98.4935, 17.2833 ], [ 98.4945, 17.2868 ], [ 98.4921, 17.2893 ], [ 98.4884, 17.2896 ], [ 98.4902, 17.2923 ], [ 98.4947, 17.2929 ], [ 98.4941, 17.2998 ], [ 98.4911, 17.2994 ], [ 98.4861, 17.2901 ], [ 98.4837, 17.2907 ], [ 98.4831, 17.2962 ], [ 98.4875, 17.3 ], [ 98.4763, 17.3029 ], [ 98.4676, 17.3094 ], [ 98.4581, 17.3126 ], [ 98.4503, 17.3071 ], [ 98.4388, 17.3027 ], [ 98.4218, 17.3075 ], [ 98.3983, 17.3047 ], [ 98.3804, 17.2983 ], [ 98.3732, 17.2972 ], [ 98.3689, 17.2946 ], [ 98.3627, 17.287 ], [ 98.3581, 17.2876 ], [ 98.351, 17.2922 ], [ 98.339, 17.2955 ], [ 98.3314, 17.3005 ], [ 98.3228, 17.31 ], [ 98.323, 17.3156 ], [ 98.3218, 17.318 ], [ 98.3184, 17.319 ], [ 98.3191, 17.3215 ], [ 98.3252, 17.3229 ], [ 98.3329, 17.3273 ], [ 98.3309, 17.3346 ], [ 98.3346, 17.3479 ], [ 98.3189, 17.3648 ], [ 98.318, 17.3707 ], [ 98.3212, 17.3743 ], [ 98.3208, 17.3771 ], [ 98.3066, 17.3889 ], [ 98.3011, 17.3972 ], [ 98.2929, 17.4056 ], [ 98.2979, 17.4103 ], [ 98.3045, 17.4109 ], [ 98.3061, 17.4097 ], [ 98.3231, 17.4146 ], [ 98.3246, 17.4214 ], [ 98.3287, 17.4274 ], [ 98.3215, 17.4331 ], [ 98.3211, 17.4439 ], [ 98.3234, 17.4469 ], [ 98.3255, 17.4589 ], [ 98.3303, 17.469 ], [ 98.3287, 17.4861 ], [ 98.3214, 17.4986 ], [ 98.3172, 17.5024 ], [ 98.3166, 17.5089 ], [ 98.3135, 17.5166 ], [ 98.315, 17.5247 ], [ 98.3074, 17.531 ], [ 98.3098, 17.5331 ], [ 98.309, 17.5413 ], [ 98.3066, 17.5478 ], [ 98.3016, 17.5496 ], [ 98.2994, 17.5534 ], [ 98.3035, 17.5647 ], [ 98.298, 17.5739 ], [ 98.2883, 17.5733 ], [ 98.2734, 17.5775 ], [ 98.2688, 17.5773 ], [ 98.263, 17.5726 ], [ 98.2568, 17.5715 ], [ 98.2518, 17.5652 ], [ 98.2499, 17.5604 ], [ 98.2505, 17.5567 ], [ 98.2428, 17.5538 ], [ 98.2387, 17.5476 ], [ 98.2367, 17.5483 ], [ 98.2279, 17.5435 ], [ 98.2206, 17.5454 ], [ 98.2112, 17.5383 ], [ 98.2026, 17.5384 ], [ 98.199, 17.5408 ], [ 98.1899, 17.5379 ], [ 98.1886, 17.5359 ], [ 98.183, 17.537 ], [ 98.1802, 17.5354 ], [ 98.1742, 17.5425 ], [ 98.1692, 17.5449 ], [ 98.1502, 17.5392 ], [ 98.1429, 17.5404 ], [ 98.1389, 17.5392 ], [ 98.1332, 17.5447 ], [ 98.1311, 17.5527 ], [ 98.1272, 17.5562 ], [ 98.1279, 17.5649 ], [ 98.117, 17.5744 ], [ 98.1138, 17.5751 ], [ 98.113, 17.5799 ], [ 98.1109, 17.5798 ], [ 98.1081, 17.5846 ], [ 98.1082, 17.5872 ], [ 98.1111, 17.5895 ], [ 98.1071, 17.5931 ], [ 98.1049, 17.5995 ], [ 98.1081, 17.6042 ], [ 98.1061, 17.6058 ], [ 98.1071, 17.61 ], [ 98.1011, 17.6127 ], [ 98.1028, 17.6189 ], [ 98.1015, 17.6207 ], [ 98.0993, 17.6193 ], [ 98.0922, 17.6354 ], [ 98.092575, 17.6355 ], [ 98.0878, 17.6355 ], [ 98.0746, 17.6441 ], [ 98.0735, 17.6464 ], [ 98.0689, 17.6477 ], [ 98.0636, 17.6465 ], [ 98.0631, 17.6543 ], [ 98.0589, 17.6607 ], [ 98.0537, 17.6655 ], [ 98.0482, 17.6652 ], [ 98.0483, 17.6681 ], [ 98.0463, 17.6685 ], [ 98.044, 17.6736 ], [ 98.0416, 17.6735 ], [ 98.044, 17.6791 ], [ 98.0409, 17.6845 ], [ 98.0393, 17.694 ], [ 98.0319, 17.7011 ], [ 98.0326, 17.7071 ], [ 98.0305, 17.7095 ], [ 98.0263, 17.7073 ], [ 98.0248, 17.7109 ], [ 98.0283, 17.7198 ], [ 98.0222, 17.7238 ], [ 98.0222, 17.7296 ], [ 98.0164, 17.7309 ], [ 98.0159, 17.7381 ], [ 98.022, 17.7344 ], [ 98.0227, 17.7365 ], [ 98.0181, 17.7444 ], [ 98.0129, 17.7466 ], [ 98.0122, 17.7495 ], [ 98.0148, 17.7543 ], [ 98.0118, 17.7539 ], [ 98.0086, 17.7602 ], [ 98.0115, 17.7649 ], [ 98.0106, 17.7672 ], [ 98.0053, 17.7736 ], [ 97.9978, 17.7733 ], [ 97.9969, 17.7755 ], [ 97.9997, 17.7785 ], [ 97.9975, 17.7843 ], [ 97.9945, 17.784 ], [ 97.9916, 17.7945 ], [ 97.9873, 17.7986 ], [ 97.9868, 17.8073 ], [ 97.9899, 17.8093 ], [ 97.9803, 17.8131 ], [ 97.9813, 17.821 ], [ 97.9789, 17.8221 ], [ 97.9768, 17.821 ], [ 97.9763, 17.8234 ], [ 97.979, 17.8305 ], [ 97.982, 17.8305 ], [ 97.9831, 17.836 ], [ 97.9756, 17.8469 ], [ 97.973, 17.8454 ], [ 97.9713, 17.8466 ], [ 97.9685, 17.8551 ], [ 97.9694, 17.8576 ], [ 97.9742, 17.8615 ], [ 97.9701, 17.867 ], [ 97.9673, 17.8635 ], [ 97.965, 17.8639 ], [ 97.9642, 17.8662 ], [ 97.9533, 17.8587 ], [ 97.9373, 17.8565 ], [ 97.9194, 17.857 ], [ 97.9132, 17.8532 ], [ 97.9083, 17.842 ], [ 97.9088, 17.8395 ], [ 97.9027, 17.8352 ], [ 97.9, 17.8308 ], [ 97.9, 17.8286 ], [ 97.9075, 17.8184 ], [ 97.9055, 17.8106 ], [ 97.8955, 17.8025 ], [ 97.8859, 17.7994 ], [ 97.877, 17.7932 ], [ 97.872, 17.7935 ], [ 97.8696, 17.791 ], [ 97.8693, 17.7878 ], [ 97.864, 17.789 ], [ 97.8619, 17.7838 ], [ 97.8561, 17.7826 ], [ 97.8469, 17.7773 ], [ 97.827, 17.7798 ], [ 97.8178, 17.785 ], [ 97.812, 17.7833 ], [ 97.8112, 17.7813 ], [ 97.8057, 17.778 ], [ 97.7963, 17.775 ], [ 97.7881, 17.783 ], [ 97.7645, 17.7747 ], [ 97.7596, 17.7768 ], [ 97.7537, 17.7758 ], [ 97.7498, 17.7806 ], [ 97.7459, 17.7812 ], [ 97.7469, 17.7833 ], [ 97.744, 17.7834 ], [ 97.7333, 17.7949 ], [ 97.7255, 17.7965 ], [ 97.7196, 17.8046 ], [ 97.7213, 17.8136 ], [ 97.7205, 17.8157 ], [ 97.7184, 17.8171 ], [ 97.7109, 17.8166 ], [ 97.7042, 17.8136 ], [ 97.7004, 17.8174 ], [ 97.6947, 17.8266 ], [ 97.6939, 17.8388 ], [ 97.6763, 17.8683 ], [ 97.6763, 17.875 ], [ 97.6793, 17.8864 ], [ 97.6937, 17.9243 ], [ 97.7128, 17.9415 ], [ 97.7191, 17.9421 ], [ 97.7303, 17.9466 ], [ 97.7374, 17.9519 ], [ 97.741, 17.9665 ], [ 97.7411, 17.9725 ], [ 97.735, 17.992 ], [ 97.7248, 18.0128 ], [ 97.727, 18.0175 ], [ 97.7099, 18.047 ], [ 97.709, 18.0543 ], [ 97.6993, 18.064 ], [ 97.6943, 18.0641 ], [ 97.6892, 18.0585 ], [ 97.687, 18.06 ], [ 97.6856, 18.0646 ], [ 97.6935, 18.0819 ], [ 97.6936, 18.0869 ], [ 97.6919, 18.0864 ], [ 97.6892, 18.0945 ], [ 97.6797, 18.1114 ], [ 97.6797, 18.133 ], [ 97.6775, 18.145 ], [ 97.6785, 18.1525 ], [ 97.6769, 18.1595 ], [ 97.6679, 18.1686 ], [ 97.6597, 18.1705 ], [ 97.6517, 18.1771 ], [ 97.6442, 18.1912 ], [ 97.6283, 18.2063 ], [ 97.6163, 18.2214 ], [ 97.6104, 18.2367 ], [ 97.6097, 18.2411 ], [ 97.6124, 18.2495 ], [ 97.6238, 18.2582 ], [ 97.6358, 18.2706 ], [ 97.6411, 18.279 ], [ 97.6404, 18.2858 ], [ 97.6207, 18.3167 ], [ 97.615, 18.3186 ], [ 97.6044, 18.326 ], [ 97.5938, 18.33 ], [ 97.585, 18.3306 ], [ 97.5765, 18.3368 ], [ 97.5682, 18.3351 ], [ 97.5611, 18.3377 ], [ 97.5543, 18.3344 ], [ 97.5511, 18.3306 ], [ 97.5439, 18.3086 ], [ 97.5426, 18.299 ], [ 97.5372, 18.2847 ], [ 97.5287, 18.2754 ], [ 97.5218, 18.2715 ], [ 97.5077, 18.2648 ], [ 97.5019, 18.2671 ], [ 97.4864, 18.2878 ], [ 97.4683, 18.3016 ], [ 97.4619, 18.3093 ], [ 97.4536, 18.326 ], [ 97.4476, 18.3314 ], [ 97.4453, 18.338 ], [ 97.4452, 18.3492 ], [ 97.4431, 18.3589 ], [ 97.4524, 18.3751 ], [ 97.4534, 18.3881 ], [ 97.4473, 18.3943 ], [ 97.4419, 18.4033 ], [ 97.4379, 18.4052 ], [ 97.4299, 18.4051 ], [ 97.4263, 18.4091 ], [ 97.4213, 18.4207 ], [ 97.4196, 18.4339 ], [ 97.4146, 18.4411 ], [ 97.4049, 18.4473 ], [ 97.3999, 18.457 ], [ 97.3957, 18.4698 ], [ 97.3919, 18.4905 ], [ 97.3861, 18.5062 ], [ 97.3735, 18.5217 ], [ 97.3596, 18.5278 ], [ 97.3534, 18.5352 ], [ 97.3516, 18.5406 ], [ 97.3488, 18.5424 ], [ 97.3456, 18.5558 ], [ 97.3452, 18.5724 ], [ 97.3455, 18.575 ], [ 97.3542, 18.5832 ], [ 97.3611, 18.5937 ], [ 97.3622, 18.5899 ], [ 97.3633, 18.5924 ], [ 97.3649, 18.5868 ], [ 97.365, 18.5771 ], [ 97.3628, 18.5749 ], [ 97.3637, 18.5581 ], [ 97.3689, 18.5556 ], [ 97.3868, 18.5559 ], [ 97.3984, 18.5586 ], [ 97.4013, 18.5617 ], [ 97.4104, 18.5525 ], [ 97.4228, 18.5447 ], [ 97.4274, 18.5249 ], [ 97.4327, 18.5184 ], [ 97.4359, 18.5034 ], [ 97.4438, 18.4949 ], [ 97.4488, 18.4918 ], [ 97.4563, 18.4902 ], [ 97.4629, 18.4964 ], [ 97.4679, 18.4942 ], [ 97.4701, 18.4948 ], [ 97.4748, 18.5008 ], [ 97.4817, 18.5031 ], [ 97.4848, 18.5065 ], [ 97.4919, 18.5053 ], [ 97.4995, 18.4942 ], [ 97.5088, 18.4886 ], [ 97.5118, 18.4888 ], [ 97.5136, 18.4915 ], [ 97.5214, 18.4946 ], [ 97.5246, 18.4924 ], [ 97.5312, 18.4923 ], [ 97.5342, 18.4892 ], [ 97.5394, 18.4876 ], [ 97.5442, 18.4962 ], [ 97.5429, 18.5004 ], [ 97.5481, 18.515 ], [ 97.5487, 18.5226 ], [ 97.5515, 18.526 ], [ 97.5612, 18.5241 ], [ 97.5669, 18.5188 ], [ 97.5716, 18.5223 ], [ 97.5765, 18.5314 ], [ 97.5805, 18.5299 ], [ 97.5888, 18.5301 ], [ 97.5925, 18.5347 ], [ 97.5996, 18.532 ], [ 97.6059, 18.5329 ], [ 97.6086, 18.5336 ], [ 97.6099, 18.5383 ], [ 97.6159, 18.5415 ], [ 97.6204, 18.5413 ], [ 97.6204, 18.537 ], [ 97.6226, 18.5389 ], [ 97.6226, 18.5357 ], [ 97.6264, 18.5391 ], [ 97.6264, 18.5414 ], [ 97.6184, 18.5518 ], [ 97.6183, 18.5576 ], [ 97.6274, 18.5618 ], [ 97.6323, 18.5613 ], [ 97.6357, 18.5565 ], [ 97.6401, 18.5555 ], [ 97.6438, 18.5585 ], [ 97.6486, 18.5669 ], [ 97.6531, 18.5672 ], [ 97.6541, 18.5723 ], [ 97.6589, 18.5745 ], [ 97.6749, 18.5701 ], [ 97.6781, 18.5736 ], [ 97.6834, 18.5715 ], [ 97.6854, 18.5727 ], [ 97.6963, 18.5667 ], [ 97.7036, 18.5662 ], [ 97.7242, 18.5702 ], [ 97.7273, 18.5735 ], [ 97.7262, 18.5756 ], [ 97.7285, 18.5802 ], [ 97.7332, 18.5805 ], [ 97.7468, 18.575 ], [ 97.7512, 18.5756 ], [ 97.756, 18.5728 ], [ 97.7615, 18.5748 ], [ 97.7638, 18.5738 ], [ 97.7719, 18.575 ], [ 97.7715, 18.583 ], [ 97.7699, 18.585 ], [ 97.773, 18.5879 ], [ 97.7782, 18.6123 ], [ 97.7769, 18.6165 ], [ 97.7739, 18.6182 ], [ 97.7747, 18.6255 ], [ 97.7719, 18.6297 ], [ 97.7755, 18.6337 ], [ 97.7724, 18.6405 ], [ 97.7754, 18.6415 ], [ 97.7765, 18.653 ], [ 97.7731, 18.6576 ], [ 97.7719, 18.6643 ], [ 97.7767, 18.6713 ], [ 97.775, 18.6793 ], [ 97.7775, 18.6867 ], [ 97.7758, 18.6929 ], [ 97.7698, 18.6999 ], [ 97.7679, 18.7065 ], [ 97.7635, 18.709 ], [ 97.7574, 18.7219 ], [ 97.7575, 18.7304 ], [ 97.7555, 18.733 ], [ 97.7572, 18.7382 ], [ 97.7611, 18.7413 ], [ 97.7631, 18.7488 ], [ 97.7618, 18.7509 ], [ 97.7665, 18.7546 ], [ 97.767, 18.7568 ], [ 97.7661, 18.7599 ], [ 97.7571, 18.7649 ], [ 97.7583, 18.7673 ], [ 97.756, 18.7716 ], [ 97.7576, 18.7817 ], [ 97.7528, 18.7881 ], [ 97.7518, 18.7958 ], [ 97.7563, 18.8055 ], [ 97.7485, 18.8086 ], [ 97.7435, 18.823 ], [ 97.7428, 18.8273 ], [ 97.7484, 18.8301 ], [ 97.7517, 18.8403 ], [ 97.7471, 18.8474 ], [ 97.7493, 18.8528 ], [ 97.7451, 18.8564 ], [ 97.7433, 18.8662 ], [ 97.7441, 18.8697 ], [ 97.7426, 18.8724 ], [ 97.7444, 18.8785 ], [ 97.7388, 18.8848 ], [ 97.7311, 18.8832 ], [ 97.7194, 18.8879 ], [ 97.7125, 18.8954 ], [ 97.7082, 18.8968 ], [ 97.7009, 18.9038 ], [ 97.7003, 18.9064 ], [ 97.6916, 18.9136 ], [ 97.6935, 18.9183 ], [ 97.6927, 18.9221 ], [ 97.6724, 18.9302 ], [ 97.6706, 18.9353 ], [ 97.6729, 18.9405 ], [ 97.671, 18.9418 ], [ 97.6712, 18.9444 ], [ 97.6803, 18.9449 ], [ 97.6872, 18.9498 ], [ 97.6931, 18.9454 ], [ 97.7022, 18.9542 ], [ 97.7062, 18.956 ], [ 97.7088, 18.9544 ], [ 97.7111, 18.9631 ], [ 97.7177, 18.9657 ], [ 97.7235, 18.9642 ], [ 97.728, 18.9698 ], [ 97.7357, 18.971 ], [ 97.7412, 18.9764 ], [ 97.7377, 18.9803 ], [ 97.7404, 18.9897 ], [ 97.74, 19.0051 ], [ 97.7383, 19.0114 ], [ 97.7424, 19.0228 ], [ 97.7404, 19.0267 ], [ 97.7419, 19.0321 ], [ 97.7388, 19.0386 ], [ 97.7467, 19.04 ], [ 97.752, 19.0364 ], [ 97.7553, 19.0399 ], [ 97.7595, 19.0389 ], [ 97.763, 19.036 ], [ 97.7729, 19.0423 ], [ 97.7752, 19.0531 ], [ 97.7718, 19.0607 ], [ 97.768, 19.0643 ], [ 97.7724, 19.0696 ], [ 97.7828, 19.0732 ], [ 97.785, 19.0734 ], [ 97.7886, 19.0707 ], [ 97.7957, 19.0715 ], [ 97.7993, 19.0739 ], [ 97.8007, 19.0788 ], [ 97.8062, 19.0832 ], [ 97.8116, 19.0834 ], [ 97.814, 19.0882 ], [ 97.8276, 19.0887 ], [ 97.8373, 19.0922 ], [ 97.839, 19.0977 ], [ 97.8386, 19.1069 ], [ 97.8413, 19.1104 ], [ 97.8418, 19.1156 ], [ 97.8365, 19.1341 ], [ 97.8391, 19.1376 ], [ 97.8393, 19.1421 ], [ 97.8444, 19.1439 ], [ 97.8466, 19.1484 ], [ 97.8434, 19.1517 ], [ 97.8452, 19.1576 ], [ 97.8421, 19.1603 ], [ 97.8431, 19.165 ], [ 97.8405, 19.1695 ], [ 97.8461, 19.1794 ], [ 97.8424, 19.1852 ], [ 97.8399, 19.1943 ], [ 97.8408, 19.1968 ], [ 97.8473, 19.1998 ], [ 97.8467, 19.2074 ], [ 97.8487, 19.2083 ], [ 97.8488, 19.2119 ], [ 97.8453, 19.2183 ], [ 97.8457, 19.2203 ], [ 97.8298, 19.2273 ], [ 97.8297, 19.2349 ], [ 97.8196, 19.2368 ], [ 97.8137, 19.2509 ], [ 97.7927, 19.2621 ], [ 97.7871, 19.263 ], [ 97.7862, 19.2652 ], [ 97.79, 19.2694 ], [ 97.7892, 19.2717 ], [ 97.7915, 19.2722 ], [ 97.7937, 19.2762 ], [ 97.7939, 19.2806 ], [ 97.801, 19.2822 ], [ 97.8047, 19.2863 ], [ 97.8074, 19.286 ], [ 97.813, 19.2792 ], [ 97.8207, 19.2825 ], [ 97.8254, 19.28 ], [ 97.8299, 19.2824 ], [ 97.8356, 19.2891 ], [ 97.846, 19.2874 ], [ 97.8458, 19.2953 ], [ 97.8424, 19.2983 ], [ 97.8338, 19.3001 ], [ 97.8319, 19.3088 ], [ 97.8278, 19.3128 ], [ 97.8284, 19.322 ], [ 97.8256, 19.3264 ], [ 97.8148, 19.3324 ], [ 97.814, 19.3348 ], [ 97.8174, 19.3365 ], [ 97.8125, 19.3408 ], [ 97.8122, 19.3433 ], [ 97.8032, 19.3493 ], [ 97.8021, 19.3529 ], [ 97.8054, 19.3613 ], [ 97.8042, 19.3691 ], [ 97.8096, 19.373 ], [ 97.8064, 19.3777 ], [ 97.8071, 19.3852 ], [ 97.7951, 19.3922 ], [ 97.7905, 19.3933 ], [ 97.7899, 19.398 ], [ 97.7912, 19.4004 ], [ 97.8012, 19.4027 ], [ 97.8073, 19.4024 ], [ 97.81, 19.4083 ], [ 97.8182, 19.4122 ], [ 97.8181, 19.4143 ], [ 97.828, 19.4235 ], [ 97.8305, 19.4283 ], [ 97.8305, 19.4375 ], [ 97.8368, 19.4447 ], [ 97.8394, 19.4458 ], [ 97.8491, 19.4596 ], [ 97.8537, 19.4637 ], [ 97.8612, 19.4669 ], [ 97.8612, 19.469 ], [ 97.8634, 19.4702 ], [ 97.8634, 19.4776 ], [ 97.8686, 19.481 ], [ 97.874, 19.481 ], [ 97.8775, 19.4853 ], [ 97.8754, 19.4907 ], [ 97.877, 19.4929 ], [ 97.8856, 19.4951 ], [ 97.8854, 19.4964 ], [ 97.8891, 19.4981 ], [ 97.8823, 19.5048 ], [ 97.878, 19.5042 ], [ 97.8766, 19.5064 ], [ 97.8777, 19.5107 ], [ 97.8745, 19.5138 ], [ 97.8723, 19.5133 ], [ 97.8695, 19.5226 ], [ 97.857, 19.5306 ], [ 97.8587, 19.5503 ], [ 97.864, 19.5603 ], [ 97.8644, 19.5646 ], [ 97.861, 19.569 ], [ 97.8638, 19.5732 ], [ 97.8674, 19.5756 ], [ 97.8683, 19.574 ], [ 97.8742, 19.5759 ], [ 97.8774, 19.575 ], [ 97.8838, 19.5786 ], [ 97.893, 19.5745 ], [ 97.9042, 19.5756 ], [ 97.9141, 19.5816 ], [ 97.9238, 19.5827 ], [ 97.9295, 19.5871 ], [ 97.9316, 19.5858 ], [ 97.9463, 19.5951 ], [ 97.954, 19.5912 ], [ 97.9633, 19.5904 ], [ 97.9635, 19.5958 ], [ 97.9735, 19.5974 ], [ 97.9791, 19.6003 ], [ 97.9793, 19.608 ], [ 97.9777, 19.6096 ], [ 97.9798, 19.6146 ], [ 97.9758, 19.6194 ], [ 97.979, 19.6273 ], [ 97.9767, 19.6315 ], [ 97.979, 19.6329 ], [ 97.9839, 19.6318 ], [ 97.9869, 19.6379 ], [ 97.9941, 19.635 ], [ 97.997, 19.6355 ], [ 98.0052, 19.6303 ], [ 98.0067, 19.6332 ], [ 98.0158, 19.6325 ], [ 98.0179, 19.6335 ], [ 98.0179, 19.6358 ], [ 98.0296, 19.6337 ], [ 98.0307, 19.6381 ], [ 98.0359, 19.6402 ], [ 98.0416, 19.6391 ], [ 98.0428, 19.6459 ], [ 98.0483, 19.6521 ], [ 98.0463, 19.6573 ], [ 98.0467, 19.6623 ], [ 98.036, 19.668 ], [ 98.035, 19.6703 ], [ 98.0374, 19.6743 ], [ 98.032, 19.6848 ], [ 98.0351, 19.6884 ], [ 98.0342, 19.6933 ], [ 98.0372, 19.6954 ], [ 98.038, 19.6982 ], [ 98.0334, 19.7017 ], [ 98.0292, 19.7106 ], [ 98.0303, 19.7152 ], [ 98.0291, 19.7195 ], [ 98.0353, 19.7215 ], [ 98.0347, 19.7286 ], [ 98.033, 19.7307 ], [ 98.0373, 19.7379 ], [ 98.0363, 19.7429 ], [ 98.0386, 19.7466 ], [ 98.0367, 19.7505 ], [ 98.0416, 19.7626 ], [ 98.0372, 19.7704 ], [ 98.0385, 19.7771 ], [ 98.037, 19.7789 ], [ 98.037, 19.7839 ], [ 98.0398, 19.7915 ], [ 98.0434, 19.7959 ], [ 98.0377, 19.8004 ], [ 98.041, 19.8039 ], [ 98.0488, 19.8067 ], [ 98.0515, 19.8113 ], [ 98.0537, 19.8102 ], [ 98.0534, 19.8077 ], [ 98.0563, 19.8042 ], [ 98.0553, 19.8024 ], [ 98.0594, 19.7999 ], [ 98.0689, 19.8022 ], [ 98.0707, 19.807 ], [ 98.0858, 19.8072 ], [ 98.0878, 19.803 ], [ 98.0849, 19.7905 ], [ 98.0888, 19.788 ], [ 98.0926, 19.7879 ], [ 98.1016, 19.7702 ], [ 98.1035, 19.7692 ], [ 98.1141, 19.7704 ], [ 98.1174, 19.7724 ], [ 98.1194, 19.7764 ], [ 98.1264, 19.7763 ], [ 98.1309, 19.7809 ], [ 98.1379, 19.7842 ], [ 98.1539, 19.7708 ], [ 98.16, 19.7678 ], [ 98.1653, 19.7688 ], [ 98.1714, 19.767 ], [ 98.1807, 19.7576 ], [ 98.1851, 19.7567 ], [ 98.1853, 19.747 ], [ 98.1936, 19.7361 ], [ 98.1992, 19.7332 ], [ 98.2005, 19.7348 ], [ 98.2063, 19.7285 ], [ 98.2126, 19.7285 ], [ 98.2168, 19.7234 ], [ 98.2207, 19.7215 ], [ 98.2252, 19.7214 ], [ 98.2297, 19.7246 ], [ 98.2324, 19.7157 ], [ 98.235, 19.7144 ], [ 98.2392, 19.7082 ], [ 98.2374, 19.7028 ], [ 98.2328, 19.6984 ], [ 98.2341, 19.6916 ], [ 98.238, 19.6856 ], [ 98.2502, 19.6737 ], [ 98.2559, 19.6758 ], [ 98.2622, 19.6754 ], [ 98.2716, 19.6808 ], [ 98.2791, 19.6792 ], [ 98.2902, 19.6821 ], [ 98.2945, 19.6797 ], [ 98.2993, 19.6793 ], [ 98.3039, 19.6839 ], [ 98.311, 19.6847 ], [ 98.326, 19.6948 ], [ 98.3288, 19.6952 ], [ 98.3327, 19.6941 ], [ 98.3369, 19.6898 ], [ 98.3394, 19.6902 ], [ 98.343, 19.6942 ], [ 98.3492, 19.6949 ], [ 98.3515, 19.6914 ], [ 98.3597, 19.6921 ], [ 98.3665, 19.6906 ], [ 98.3727, 19.6862 ], [ 98.375, 19.687 ], [ 98.38, 19.6944 ], [ 98.3914, 19.6978 ], [ 98.3953, 19.7009 ], [ 98.4007, 19.6978 ], [ 98.4048, 19.6976 ], [ 98.4095, 19.6912 ], [ 98.4169, 19.6893 ], [ 98.4213, 19.6917 ], [ 98.4295, 19.6912 ], [ 98.4352, 19.694 ], [ 98.4423, 19.6905 ], [ 98.451, 19.6906 ], [ 98.4549, 19.6932 ], [ 98.4629, 19.6943 ], [ 98.4643, 19.6908 ], [ 98.468646774193545, 19.689061290322581 ], [ 98.4684, 19.6895 ], [ 98.4704, 19.6921 ], [ 98.4759, 19.6933 ], [ 98.4846, 19.7006 ], [ 98.4974, 19.7033 ], [ 98.5091, 19.7086 ], [ 98.5123, 19.7155 ], [ 98.5205, 19.7129 ], [ 98.5372, 19.6927 ], [ 98.5403, 19.6909 ], [ 98.5423, 19.6858 ], [ 98.5516, 19.6834 ], [ 98.5577, 19.679 ], [ 98.5619, 19.6731 ], [ 98.5676, 19.6696 ], [ 98.5695, 19.6707 ], [ 98.5696, 19.6779 ], [ 98.5748, 19.7014 ], [ 98.5899, 19.711 ], [ 98.5954, 19.7124 ], [ 98.6074, 19.7075 ], [ 98.6125, 19.7073 ], [ 98.6156, 19.7085 ], [ 98.6204, 19.7141 ], [ 98.6225, 19.7115 ], [ 98.626, 19.7114 ], [ 98.629, 19.7138 ], [ 98.6298, 19.7179 ], [ 98.628, 19.7243 ], [ 98.6354, 19.7264 ], [ 98.6556, 19.7369 ], [ 98.6601, 19.7337 ], [ 98.6637, 19.7348 ], [ 98.6669, 19.7378 ], [ 98.6666, 19.7448 ], [ 98.6713, 19.7476 ], [ 98.676, 19.7486 ], [ 98.6814, 19.747 ], [ 98.6862, 19.7512 ], [ 98.6963, 19.7521 ], [ 98.7054, 19.7552 ], [ 98.7109, 19.7605 ], [ 98.7141, 19.7616 ], [ 98.7211, 19.7588 ], [ 98.7309, 19.7581 ], [ 98.7344, 19.7541 ], [ 98.7411, 19.7515 ], [ 98.747, 19.7534 ], [ 98.7531, 19.7582 ], [ 98.7603, 19.7548 ], [ 98.773, 19.7529 ], [ 98.779, 19.7497 ], [ 98.7819, 19.751 ], [ 98.7882, 19.7585 ], [ 98.7901, 19.7625 ], [ 98.7969, 19.7693 ], [ 98.7983, 19.7731 ], [ 98.8057, 19.7739 ], [ 98.816, 19.7792 ], [ 98.8289, 19.7903 ], [ 98.8314, 19.7938 ], [ 98.83, 19.8002 ], [ 98.8343, 19.8084 ], [ 98.8415, 19.8111 ], [ 98.8502, 19.8057 ], [ 98.8523, 19.8028 ], [ 98.8518, 19.8004 ], [ 98.8567, 19.7947 ], [ 98.8711, 19.79 ], [ 98.877, 19.7805 ], [ 98.8873, 19.7782 ], [ 98.8978, 19.7689 ], [ 98.8975, 19.7666 ], [ 98.8996, 19.7645 ], [ 98.9104, 19.7611 ], [ 98.9116, 19.7563 ], [ 98.9158, 19.7528 ], [ 98.9161, 19.7429 ], [ 98.9188, 19.7395 ], [ 98.9203, 19.7432 ], [ 98.9279, 19.7499 ], [ 98.93, 19.754 ], [ 98.9314, 19.7607 ], [ 98.9292, 19.7668 ], [ 98.9296, 19.7697 ], [ 98.9319, 19.7715 ], [ 98.9461, 19.7658 ], [ 98.9464, 19.7618 ], [ 98.9555, 19.755 ], [ 98.9574, 19.7475 ], [ 98.9651, 19.7392 ], [ 98.976, 19.7327 ], [ 98.9825, 19.7319 ], [ 98.9906, 19.7491 ], [ 98.9893, 19.7604 ], [ 98.9936, 19.7805 ], [ 98.9947, 19.7822 ], [ 98.9986, 19.7797 ], [ 99.0053, 19.7795 ], [ 99.0084, 19.7873 ], [ 99.017, 19.7924 ], [ 99.0188, 19.8037 ], [ 99.0235, 19.812 ], [ 99.0265, 19.8234 ], [ 99.0324, 19.8317 ], [ 99.0311, 19.838 ], [ 99.036, 19.8527 ], [ 99.0257, 19.8621 ], [ 99.0271, 19.874 ], [ 99.0294, 19.8775 ], [ 99.027, 19.8834 ], [ 99.0281, 19.8921 ], [ 99.024, 19.9023 ], [ 99.0245, 19.9059 ], [ 99.0289, 19.9069 ], [ 99.0288, 19.9128 ], [ 99.0253, 19.9177 ], [ 99.0246, 19.9254 ], [ 99.0274, 19.9269 ], [ 99.031, 19.9235 ], [ 99.0359, 19.9277 ], [ 99.0441, 19.9283 ], [ 99.0429, 19.9411 ], [ 99.0462, 19.9469 ], [ 99.0419, 19.9527 ], [ 99.0411, 19.9618 ], [ 99.0381, 19.9669 ], [ 99.0338, 19.9674 ], [ 99.0321, 19.9692 ], [ 99.0371, 19.9795 ], [ 99.0383, 19.9876 ], [ 99.0433, 19.9932 ], [ 99.0529, 19.9967 ], [ 99.0559, 20.0004 ], [ 99.0502, 20.0052 ], [ 99.0455, 20.0138 ], [ 99.045, 20.0169 ], [ 99.0475, 20.0249 ], [ 99.0473, 20.0318 ], [ 99.0457, 20.0341 ], [ 99.051, 20.0448 ], [ 99.0552, 20.048 ], [ 99.0582, 20.0598 ], [ 99.0693, 20.0663 ], [ 99.0717, 20.0792 ], [ 99.0691, 20.0833 ], [ 99.0697, 20.0871 ], [ 99.0741, 20.0946 ], [ 99.0785, 20.0986 ], [ 99.0835, 20.0993 ], [ 99.0848, 20.097 ], [ 99.0923, 20.0949 ], [ 99.0941, 20.0962 ], [ 99.0949, 20.1013 ], [ 99.0974, 20.1033 ], [ 99.1003, 20.1004 ], [ 99.1019, 20.0959 ], [ 99.1044, 20.0949 ], [ 99.1101, 20.0954 ], [ 99.1124, 20.0977 ], [ 99.119, 20.0982 ], [ 99.1337, 20.1029 ], [ 99.1308, 20.1069 ], [ 99.1288, 20.1147 ], [ 99.1314, 20.1173 ], [ 99.1433, 20.1193 ], [ 99.1474, 20.121 ], [ 99.1509, 20.1255 ], [ 99.152, 20.1241 ], [ 99.1635, 20.1297 ], [ 99.1671, 20.1274 ], [ 99.1732, 20.1292 ], [ 99.1831, 20.124 ], [ 99.1933, 20.1238 ], [ 99.2013, 20.1274 ], [ 99.214, 20.1277 ], [ 99.2203, 20.1246 ], [ 99.2257, 20.1166 ], [ 99.2284, 20.1161 ], [ 99.2372, 20.1215 ], [ 99.2452, 20.1115 ], [ 99.2527, 20.1092 ], [ 99.2567, 20.1112 ], [ 99.2619, 20.1108 ], [ 99.2655, 20.1029 ], [ 99.2711, 20.1009 ], [ 99.2787, 20.0941 ], [ 99.2857, 20.0911 ], [ 99.291, 20.087 ], [ 99.292, 20.0839 ], [ 99.2959, 20.0802 ], [ 99.309, 20.0763 ], [ 99.318, 20.0679 ], [ 99.3263, 20.0666 ], [ 99.3342, 20.0709 ], [ 99.3399, 20.0709 ], [ 99.3437, 20.0689 ], [ 99.3454, 20.0714 ], [ 99.3527, 20.0726 ], [ 99.3602, 20.0784 ], [ 99.3715, 20.0809 ], [ 99.3835, 20.0865 ], [ 99.3878, 20.085 ], [ 99.4003, 20.0853 ], [ 99.4029, 20.0837 ], [ 99.4171, 20.0856 ], [ 99.4191, 20.0888 ], [ 99.4231, 20.0905 ], [ 99.4263, 20.0903 ], [ 99.4315, 20.0864 ], [ 99.4386, 20.0882 ], [ 99.441, 20.0872 ], [ 99.4439, 20.0888 ], [ 99.4466, 20.0954 ], [ 99.457, 20.0949 ], [ 99.4706, 20.1039 ], [ 99.4749, 20.1056 ], [ 99.4845, 20.1059 ], [ 99.4925, 20.1097 ], [ 99.4937, 20.1117 ], [ 99.5, 20.113 ], [ 99.5021, 20.1148 ], [ 99.5007, 20.123 ], [ 99.4981, 20.1275 ], [ 99.4993, 20.1302 ], [ 99.5145, 20.1442 ], [ 99.5162, 20.1436 ], [ 99.5172, 20.1432 ], [ 99.5146, 20.1489 ], [ 99.5206, 20.1501 ], [ 99.5328, 20.1442 ], [ 99.5421, 20.1451 ], [ 99.5405, 20.1524 ], [ 99.5428, 20.1588 ], [ 99.5411, 20.1619 ], [ 99.5445, 20.1696 ], [ 99.5532, 20.1725 ], [ 99.5565, 20.177 ], [ 99.5561, 20.1874 ], [ 99.5626, 20.2019 ], [ 99.5658, 20.2038 ], [ 99.5572, 20.2151 ], [ 99.5507, 20.2145 ], [ 99.5456, 20.2169 ], [ 99.5433, 20.2229 ], [ 99.5349, 20.2304 ], [ 99.5241, 20.2316 ], [ 99.5253, 20.2357 ], [ 99.5228, 20.2416 ], [ 99.5232, 20.2482 ], [ 99.5183, 20.254 ], [ 99.5205, 20.2574 ], [ 99.5197, 20.2634 ], [ 99.5118, 20.2831 ], [ 99.5118, 20.2862 ], [ 99.5071, 20.2921 ], [ 99.5088, 20.299 ], [ 99.5078, 20.3052 ], [ 99.5115, 20.3121 ], [ 99.5091, 20.3234 ], [ 99.4984, 20.3391 ], [ 99.4959, 20.3392 ], [ 99.4838, 20.3469 ], [ 99.476, 20.3484 ], [ 99.4686, 20.3563 ], [ 99.4592, 20.3603 ], [ 99.4588, 20.3765 ], [ 99.4612, 20.3829 ], [ 99.4595, 20.3907 ], [ 99.4742, 20.3923 ], [ 99.4903, 20.3819 ], [ 99.4947, 20.3811 ], [ 99.498, 20.3834 ], [ 99.5025, 20.3812 ], [ 99.5036, 20.3776 ], [ 99.5167, 20.3639 ], [ 99.5182, 20.3601 ], [ 99.5264, 20.3606 ], [ 99.5406, 20.3538 ], [ 99.56, 20.3558 ], [ 99.5639, 20.3502 ], [ 99.5762, 20.347 ], [ 99.5798, 20.3429 ], [ 99.5842, 20.3409 ], [ 99.5954, 20.3408 ], [ 99.6004, 20.3361 ], [ 99.6049, 20.3358 ], [ 99.6086, 20.332 ], [ 99.6142, 20.3298 ], [ 99.6164, 20.3343 ], [ 99.6208, 20.334 ], [ 99.625, 20.3368 ], [ 99.6316, 20.3342 ], [ 99.6375, 20.3401 ], [ 99.6442, 20.3396 ], [ 99.6462, 20.3417 ], [ 99.6519, 20.3387 ], [ 99.6527, 20.3337 ], [ 99.6558, 20.3325 ], [ 99.6589, 20.3269 ], [ 99.6743, 20.3203 ], [ 99.6779, 20.3158 ], [ 99.6837, 20.3146 ], [ 99.6869, 20.3164 ], [ 99.6872, 20.3185 ], [ 99.7003, 20.3247 ], [ 99.708, 20.3243 ], [ 99.7132, 20.3221 ], [ 99.7156, 20.3254 ], [ 99.7215, 20.3267 ], [ 99.7225, 20.3302 ], [ 99.7191, 20.3371 ], [ 99.72, 20.3408 ], [ 99.7231, 20.3437 ], [ 99.7283, 20.3441 ], [ 99.7327, 20.3479 ], [ 99.7418, 20.3429 ], [ 99.7475, 20.3437 ], [ 99.7599, 20.337 ], [ 99.7624, 20.34 ], [ 99.7723, 20.3395 ], [ 99.7782, 20.3326 ], [ 99.8015, 20.3324 ], [ 99.8128, 20.3341 ], [ 99.8169, 20.3423 ], [ 99.8278, 20.352 ], [ 99.8307, 20.3623 ], [ 99.8429, 20.3706 ], [ 99.8441, 20.3812 ], [ 99.8416, 20.3871 ], [ 99.8436, 20.3912 ], [ 99.8427, 20.4003 ], [ 99.8463, 20.4045 ], [ 99.85, 20.4057 ], [ 99.8548, 20.4117 ], [ 99.8579, 20.4124 ], [ 99.8631, 20.4271 ], [ 99.8675, 20.4316 ], [ 99.8718, 20.443 ], [ 99.8759, 20.4418 ], [ 99.8865, 20.444 ], [ 99.891, 20.4425 ], [ 99.8928, 20.4433 ], [ 99.8951, 20.4411 ], [ 99.8951, 20.4438 ], [ 99.8994, 20.4464 ], [ 99.9038, 20.4454 ], [ 99.9062, 20.4475 ], [ 99.908, 20.4466 ], [ 99.9096, 20.4478 ], [ 99.9172, 20.4478 ], [ 99.9187, 20.4451 ], [ 99.9234, 20.4439 ], [ 99.9298, 20.4497 ], [ 99.9302, 20.4519 ], [ 99.9344, 20.4543 ], [ 99.9362, 20.4524 ], [ 99.9416, 20.4535 ], [ 99.9533, 20.4592 ], [ 99.9568, 20.4628 ], [ 99.9618, 20.4631 ], [ 99.9614, 20.4594 ], [ 99.9668, 20.4613 ], [ 99.9664, 20.4579 ], [ 99.965, 20.4578 ], [ 99.9671, 20.4557 ], [ 99.9716, 20.4574 ], [ 99.9685, 20.4528 ], [ 99.9753, 20.4505 ], [ 99.9765, 20.4465 ], [ 99.9818, 20.448 ], [ 99.9792, 20.4441 ], [ 99.9759, 20.4429 ], [ 99.9783, 20.4408 ], [ 99.9777, 20.4385 ], [ 99.9827, 20.4397 ], [ 99.985, 20.4363 ], [ 99.9877, 20.4367 ], [ 99.9872, 20.4342 ], [ 99.9909, 20.434 ], [ 99.9865, 20.4321 ], [ 99.9883, 20.43 ], [ 99.9869, 20.4279 ], [ 99.9933, 20.4252 ], [ 99.9891, 20.4209 ], [ 99.9968, 20.4199 ], [ 99.9919, 20.416 ], [ 99.9997, 20.417 ], [ 100.0014, 20.4144 ], [ 100.0053, 20.4132 ], [ 100.0051, 20.4106 ], [ 100.007, 20.4117 ], [ 100.0067, 20.4143 ], [ 100.0105, 20.4165 ], [ 100.0113, 20.4148 ], [ 100.0141, 20.4147 ], [ 100.0127, 20.4113 ], [ 100.016, 20.4128 ], [ 100.0207, 20.4105 ], [ 100.0188, 20.4075 ], [ 100.0213, 20.4047 ], [ 100.0254, 20.4039 ], [ 100.0256, 20.4059 ], [ 100.0272, 20.4027 ], [ 100.03, 20.4021 ], [ 100.0307, 20.4 ], [ 100.0325, 20.4004 ], [ 100.0316, 20.3988 ], [ 100.0351, 20.3971 ], [ 100.0378, 20.3995 ], [ 100.0376, 20.3963 ], [ 100.0422, 20.3914 ], [ 100.0429, 20.3965 ], [ 100.0451, 20.3963 ], [ 100.0464, 20.3906 ], [ 100.0535, 20.3909 ], [ 100.0562, 20.386 ], [ 100.0586, 20.3877 ], [ 100.0574, 20.3922 ], [ 100.0592, 20.3945 ], [ 100.0619, 20.3944 ], [ 100.0645, 20.3905 ], [ 100.0684, 20.3924 ], [ 100.0687, 20.3913 ], [ 100.0655, 20.39 ], [ 100.0657, 20.3836 ], [ 100.069, 20.3841 ], [ 100.0718, 20.3877 ], [ 100.0741, 20.3864 ], [ 100.0714, 20.3818 ], [ 100.0676, 20.3796 ], [ 100.0697, 20.3764 ], [ 100.0687, 20.3733 ], [ 100.073, 20.3731 ], [ 100.0801, 20.3787 ], [ 100.0811, 20.3768 ], [ 100.0788, 20.3721 ], [ 100.0841, 20.3678 ], [ 100.0883, 20.367 ], [ 100.0873, 20.3652 ], [ 100.0822, 20.3639 ], [ 100.0812, 20.3615 ], [ 100.0826, 20.3557 ], [ 100.0869, 20.3506 ], [ 100.088, 20.3437 ], [ 100.0957, 20.3265 ], [ 100.0982, 20.316 ], [ 100.0986, 20.306 ], [ 100.0926, 20.2767 ], [ 100.0941, 20.2659 ], [ 100.0994, 20.259 ], [ 100.114, 20.2484 ], [ 100.1627, 20.2421 ], [ 100.1713, 20.2429 ], [ 100.1757, 20.2457 ], [ 100.1827, 20.2614 ], [ 100.1783, 20.2752 ], [ 100.1707, 20.2835 ], [ 100.1695, 20.2962 ], [ 100.1756, 20.3015 ], [ 100.1843, 20.3052 ], [ 100.1976, 20.3091 ], [ 100.2174, 20.3113 ], [ 100.2228, 20.3152 ], [ 100.2283, 20.3227 ], [ 100.2309, 20.3293 ], [ 100.2262, 20.3453 ], [ 100.227, 20.35 ], [ 100.2317, 20.3563 ], [ 100.2487, 20.3664 ], [ 100.2515, 20.3729 ], [ 100.2507, 20.3809 ], [ 100.2536, 20.3857 ], [ 100.2679, 20.3971 ], [ 100.2744, 20.3988 ], [ 100.3032, 20.3954 ], [ 100.3159, 20.4 ], [ 100.3214, 20.397 ], [ 100.3326, 20.3964 ], [ 100.3532, 20.3792 ], [ 100.3543, 20.3766 ], [ 100.3573, 20.3759 ], [ 100.3615, 20.3659 ], [ 100.3602, 20.361 ], [ 100.3614, 20.3533 ], [ 100.3719, 20.3525 ], [ 100.3771, 20.3487 ], [ 100.3838, 20.3137 ], [ 100.3952, 20.2985 ], [ 100.3979, 20.2916 ], [ 100.4081, 20.28 ], [ 100.4137, 20.2579 ], [ 100.4168, 20.2525 ], [ 100.4295, 20.243 ], [ 100.4387, 20.2393 ], [ 100.454, 20.2297 ], [ 100.4585, 20.2225 ], [ 100.4557, 20.2097 ], [ 100.4557, 20.2025 ], [ 100.4576, 20.1976 ], [ 100.4684, 20.1952 ], [ 100.4801, 20.1867 ], [ 100.4832, 20.1813 ], [ 100.4873, 20.1795 ], [ 100.4919, 20.1746 ], [ 100.4981, 20.1637 ], [ 100.5039, 20.158 ], [ 100.5106, 20.148 ], [ 100.5198, 20.1421 ], [ 100.5304, 20.1419 ], [ 100.5427, 20.1574 ], [ 100.5473, 20.1662 ], [ 100.5548, 20.1735 ], [ 100.5595, 20.1722 ], [ 100.5664, 20.1742 ], [ 100.5798, 20.1665 ], [ 100.5772, 20.148 ], [ 100.5743, 20.1422 ], [ 100.5751, 20.1393 ], [ 100.573, 20.1342 ], [ 100.5737, 20.1237 ], [ 100.5706, 20.1117 ], [ 100.5717, 20.0966 ], [ 100.5667, 20.0922 ], [ 100.5625, 20.0845 ], [ 100.5628, 20.0755 ], [ 100.5606, 20.0653 ], [ 100.5559, 20.0517 ], [ 100.5558, 20.0448 ], [ 100.5528, 20.0412 ], [ 100.5537, 20.0292 ], [ 100.5477, 20.0256 ], [ 100.544, 20.0207 ], [ 100.5433, 20.0157 ], [ 100.5455, 20.012 ], [ 100.531, 19.9773 ], [ 100.5193, 19.944 ], [ 100.5183, 19.9366 ], [ 100.5217, 19.915 ], [ 100.5209, 19.9118 ], [ 100.5159, 19.9073 ], [ 100.5184, 19.9056 ], [ 100.5157, 19.9028 ], [ 100.5075, 19.8853 ], [ 100.5035, 19.8825 ], [ 100.5025, 19.8785 ], [ 100.4982, 19.8736 ], [ 100.484, 19.864 ], [ 100.4626, 19.8551 ], [ 100.452, 19.8459 ], [ 100.4448, 19.8354 ], [ 100.4445, 19.8327 ], [ 100.4493, 19.8278 ], [ 100.4463, 19.8197 ], [ 100.446, 19.8131 ], [ 100.4387, 19.7983 ], [ 100.4225, 19.7851 ], [ 100.4159, 19.7774 ], [ 100.4059, 19.7493 ], [ 100.4058, 19.7407 ], [ 100.4086, 19.7339 ], [ 100.419, 19.7303 ], [ 100.4217, 19.7264 ], [ 100.4276, 19.7269 ], [ 100.4328, 19.7199 ], [ 100.4392, 19.7177 ], [ 100.4416, 19.7127 ], [ 100.4411, 19.7101 ], [ 100.4441, 19.7058 ], [ 100.4397, 19.6964 ], [ 100.4352, 19.6913 ], [ 100.4299, 19.6713 ], [ 100.4434, 19.6628 ], [ 100.4453, 19.6566 ], [ 100.4442, 19.6513 ], [ 100.4455, 19.6495 ], [ 100.4439, 19.6395 ], [ 100.4448, 19.6333 ], [ 100.4495, 19.626 ], [ 100.4528, 19.6269 ], [ 100.4585, 19.6254 ], [ 100.462, 19.6168 ], [ 100.4697, 19.6129 ], [ 100.476, 19.6117 ], [ 100.486, 19.5992 ], [ 100.4882, 19.5937 ], [ 100.4861, 19.5857 ], [ 100.4881, 19.5838 ], [ 100.4894, 19.5658 ], [ 100.4871, 19.561 ], [ 100.4831, 19.5575 ], [ 100.4853, 19.548 ], [ 100.4776, 19.5393 ], [ 100.4754, 19.5324 ], [ 100.4726, 19.5289 ], [ 100.4762, 19.5252 ], [ 100.4776, 19.5174 ], [ 100.4812, 19.5127 ], [ 100.4814, 19.5071 ], [ 100.478, 19.4965 ], [ 100.4814, 19.4882 ], [ 100.4831, 19.4872 ], [ 100.4836, 19.4894 ], [ 100.4857, 19.4899 ], [ 100.4901, 19.4874 ], [ 100.5061, 19.487 ], [ 100.5085, 19.4858 ], [ 100.5307, 19.494 ], [ 100.5444, 19.4877 ], [ 100.5488, 19.4884 ], [ 100.5569, 19.4844 ], [ 100.5704, 19.4815 ], [ 100.583, 19.4843 ], [ 100.587546225362601, 19.477357791000347 ], [ 100.5858, 19.4815 ], [ 100.6012, 19.495 ], [ 100.6009, 19.5074 ], [ 100.6039, 19.5145 ], [ 100.6049, 19.5253 ], [ 100.6093, 19.5309 ], [ 100.6133, 19.5327 ], [ 100.6131, 19.5371 ], [ 100.6191, 19.5495 ], [ 100.6318, 19.5534 ], [ 100.6389, 19.5542 ], [ 100.6454, 19.5529 ], [ 100.6536, 19.5548 ], [ 100.6595, 19.5502 ], [ 100.6622, 19.5459 ], [ 100.6739, 19.5477 ], [ 100.6771, 19.5448 ], [ 100.6839, 19.5432 ], [ 100.6864, 19.5398 ], [ 100.6935, 19.5374 ], [ 100.6981, 19.5331 ], [ 100.7096, 19.5339 ], [ 100.714, 19.5285 ], [ 100.7165, 19.5289 ], [ 100.7238, 19.525 ], [ 100.7302, 19.525 ], [ 100.7341, 19.5232 ], [ 100.7368, 19.5195 ], [ 100.7419, 19.5188 ], [ 100.7434, 19.5148 ], [ 100.7538, 19.5091 ], [ 100.7597, 19.5098 ], [ 100.7615, 19.5059 ], [ 100.7583, 19.5021 ], [ 100.7666, 19.499 ], [ 100.7678, 19.4877 ], [ 100.7692, 19.4859 ], [ 100.7738, 19.4852 ], [ 100.7849, 19.4942 ], [ 100.7863, 19.4991 ], [ 100.7937, 19.5083 ], [ 100.7986, 19.512 ], [ 100.8041, 19.513 ], [ 100.8133, 19.5209 ], [ 100.8185, 19.5234 ], [ 100.8217, 19.531 ], [ 100.8272, 19.5355 ], [ 100.83, 19.5419 ], [ 100.8338, 19.5431 ], [ 100.8369, 19.5487 ], [ 100.8407, 19.5509 ], [ 100.8429, 19.5572 ], [ 100.85, 19.5664 ], [ 100.862, 19.5715 ], [ 100.8628, 19.5747 ], [ 100.8606, 19.579 ], [ 100.8676, 19.5829 ], [ 100.8688, 19.5852 ], [ 100.8677, 19.5874 ], [ 100.8716, 19.5883 ], [ 100.8734, 19.5941 ], [ 100.8769, 19.5983 ], [ 100.8805, 19.5998 ], [ 100.8801, 19.6021 ], [ 100.8816, 19.604 ], [ 100.8846, 19.6042 ], [ 100.8853, 19.6111 ], [ 100.8907, 19.6221 ], [ 100.8919, 19.6295 ], [ 100.896, 19.6318 ], [ 100.9025, 19.6306 ], [ 100.91, 19.627 ], [ 100.9102, 19.6254 ], [ 100.9149, 19.6248 ], [ 100.9183, 19.6198 ], [ 100.9278, 19.6238 ], [ 100.9359, 19.6205 ], [ 100.9401, 19.6236 ], [ 100.9497, 19.622 ], [ 100.9598, 19.6231 ], [ 100.9684, 19.621 ], [ 100.9746, 19.6173 ], [ 100.9768, 19.6177 ], [ 100.9842, 19.6253 ], [ 100.9912, 19.6228 ], [ 100.9997, 19.6244 ], [ 101.0035, 19.6201 ], [ 101.0086, 19.6216 ], [ 101.0163, 19.6179 ], [ 101.0217, 19.6208 ], [ 101.026, 19.628 ], [ 101.0372, 19.6267 ], [ 101.0407, 19.6224 ], [ 101.0452, 19.6232 ], [ 101.054, 19.618 ], [ 101.058, 19.6196 ], [ 101.0643, 19.6173 ], [ 101.0641, 19.6149 ], [ 101.0689, 19.6109 ], [ 101.0702, 19.6065 ], [ 101.0685, 19.6033 ], [ 101.0693, 19.6024 ], [ 101.0731, 19.6008 ], [ 101.0785, 19.6028 ], [ 101.083, 19.6016 ], [ 101.0918, 19.5954 ], [ 101.0938, 19.5852 ], [ 101.0995, 19.5824 ], [ 101.1032, 19.5843 ], [ 101.11, 19.5828 ], [ 101.1152, 19.5836 ], [ 101.1182, 19.5821 ], [ 101.1202, 19.5791 ], [ 101.1191, 19.5763 ], [ 101.1246, 19.5706 ], [ 101.1423, 19.577 ], [ 101.1475, 19.5755 ], [ 101.1556, 19.5792 ], [ 101.1621, 19.5788 ], [ 101.1659, 19.5809 ], [ 101.169, 19.5791 ], [ 101.1717, 19.584 ], [ 101.1812, 19.5764 ], [ 101.1882, 19.5773 ], [ 101.1941, 19.5746 ], [ 101.2, 19.5751 ], [ 101.2066, 19.5865 ], [ 101.2045, 19.59 ], [ 101.2065, 19.5942 ], [ 101.2052, 19.597 ], [ 101.2076, 19.5992 ], [ 101.2088, 19.6034 ], [ 101.2195, 19.6001 ], [ 101.2277, 19.6031 ], [ 101.2303, 19.6008 ], [ 101.2355, 19.6004 ], [ 101.246, 19.6017 ], [ 101.2484, 19.5924 ], [ 101.2584, 19.5889 ], [ 101.2619, 19.5915 ], [ 101.2641, 19.5912 ], [ 101.2678, 19.5879 ], [ 101.2834, 19.5798 ], [ 101.282, 19.5759 ], [ 101.29, 19.5663 ], [ 101.2761, 19.5481 ], [ 101.2826, 19.5358 ], [ 101.2872, 19.532 ], [ 101.2872, 19.5243 ], [ 101.2807, 19.5188 ], [ 101.2766, 19.5101 ], [ 101.2725, 19.5092 ], [ 101.2726, 19.5062 ], [ 101.2697, 19.5016 ], [ 101.2705, 19.4934 ], [ 101.269, 19.4889 ], [ 101.272, 19.4829 ], [ 101.2684, 19.4747 ], [ 101.2683, 19.4683 ], [ 101.2493, 19.4723 ], [ 101.2419, 19.4705 ], [ 101.2393, 19.4717 ], [ 101.238, 19.4756 ], [ 101.2298, 19.4743 ], [ 101.227, 19.47 ], [ 101.2217, 19.4719 ], [ 101.2189, 19.4706 ], [ 101.2156, 19.4733 ], [ 101.2122, 19.4704 ], [ 101.2129, 19.4619 ], [ 101.2072, 19.4565 ], [ 101.2107, 19.4527 ], [ 101.2097, 19.4472 ], [ 101.2142, 19.4427 ], [ 101.2124, 19.4357 ], [ 101.2171, 19.4297 ], [ 101.2108, 19.4218 ], [ 101.2093, 19.4164 ], [ 101.2058, 19.4132 ], [ 101.2016, 19.4053 ], [ 101.197, 19.4042 ], [ 101.1981, 19.3973 ], [ 101.1931, 19.4004 ], [ 101.1893, 19.3985 ], [ 101.1905, 19.3876 ], [ 101.1924, 19.3837 ], [ 101.1923, 19.3764 ], [ 101.1987, 19.3712 ], [ 101.2014, 19.3646 ], [ 101.2043, 19.3617 ], [ 101.205, 19.3598 ], [ 101.2032, 19.3587 ], [ 101.2074, 19.3479 ], [ 101.2174, 19.3448 ], [ 101.2217, 19.3419 ], [ 101.2226, 19.3434 ], [ 101.2265, 19.3427 ], [ 101.2304, 19.3448 ], [ 101.2351, 19.3331 ], [ 101.2401, 19.3285 ], [ 101.2293, 19.3076 ], [ 101.2292, 19.3035 ], [ 101.2312, 19.2953 ], [ 101.2414, 19.283 ], [ 101.2408, 19.2793 ], [ 101.2449, 19.262 ], [ 101.2523, 19.24 ], [ 101.2556, 19.2376 ], [ 101.2564, 19.219 ], [ 101.2553, 19.2078 ], [ 101.2526, 19.2035 ], [ 101.254, 19.1982 ], [ 101.2531, 19.1914 ], [ 101.2506, 19.1838 ], [ 101.2471, 19.1787 ], [ 101.2545, 19.165 ], [ 101.258, 19.1501 ], [ 101.2592, 19.1434 ], [ 101.2563, 19.1299 ], [ 101.2587, 19.1226 ], [ 101.2621, 19.1218 ], [ 101.2724, 19.1126 ], [ 101.2876, 19.1077 ], [ 101.2904, 19.1031 ], [ 101.2949, 19.1023 ], [ 101.2986, 19.0986 ], [ 101.3003, 19.0947 ], [ 101.2994, 19.0923 ], [ 101.3182, 19.0779 ], [ 101.3264, 19.0785 ], [ 101.3282, 19.0768 ], [ 101.3289, 19.0706 ], [ 101.3339, 19.0701 ], [ 101.3353, 19.0659 ], [ 101.3431, 19.0674 ], [ 101.3458, 19.0612 ], [ 101.3497, 19.0576 ], [ 101.3526, 19.0503 ], [ 101.3594, 19.048 ], [ 101.3566, 19.0467 ], [ 101.3576, 19.0437 ], [ 101.3511, 19.034 ], [ 101.3476, 19.0235 ], [ 101.3432, 19.0201 ], [ 101.3419, 19.0081 ], [ 101.3384, 19.0026 ], [ 101.3281, 19.0002 ], [ 101.3125, 19.0004 ], [ 101.3084, 18.9952 ], [ 101.3075, 18.9861 ], [ 101.303, 18.9852 ], [ 101.2952, 18.9791 ], [ 101.2934, 18.975 ], [ 101.2964, 18.9704 ], [ 101.2942, 18.9644 ], [ 101.299, 18.9525 ], [ 101.2955, 18.9492 ], [ 101.2991, 18.942 ], [ 101.2976, 18.9376 ], [ 101.2928, 18.9331 ], [ 101.284, 18.9338 ], [ 101.2807, 18.9298 ], [ 101.2766, 18.9282 ], [ 101.2781, 18.9188 ], [ 101.2768, 18.9156 ], [ 101.2664, 18.9082 ], [ 101.2556, 18.9038 ], [ 101.2499, 18.8942 ], [ 101.2502, 18.8909 ], [ 101.2477, 18.8864 ], [ 101.2506, 18.8815 ], [ 101.2511, 18.8739 ], [ 101.2539, 18.87 ], [ 101.2538, 18.8665 ], [ 101.2566, 18.8629 ], [ 101.2541, 18.8606 ], [ 101.2555, 18.8486 ], [ 101.251, 18.8386 ], [ 101.248, 18.8369 ], [ 101.2474, 18.8326 ], [ 101.2448, 18.8303 ], [ 101.2496, 18.8234 ], [ 101.25, 18.8161 ], [ 101.2554, 18.8116 ], [ 101.2529, 18.7921 ], [ 101.2511, 18.7887 ], [ 101.2523, 18.7847 ], [ 101.2512, 18.7757 ], [ 101.2491, 18.7709 ], [ 101.2406, 18.7622 ], [ 101.2392, 18.746 ], [ 101.2267, 18.7339 ], [ 101.2257, 18.7307 ], [ 101.2317, 18.7216 ], [ 101.2352, 18.7194 ], [ 101.2342, 18.7142 ], [ 101.2363, 18.7098 ], [ 101.2511, 18.7085 ], [ 101.2555, 18.7038 ], [ 101.2591, 18.7036 ], [ 101.2631, 18.6983 ], [ 101.2691, 18.697 ], [ 101.273, 18.6886 ], [ 101.2643, 18.6818 ], [ 101.2585, 18.6672 ], [ 101.248, 18.6523 ], [ 101.2438, 18.6489 ], [ 101.2424, 18.6392 ], [ 101.229, 18.6272 ], [ 101.215, 18.62 ], [ 101.191, 18.614 ], [ 101.1918, 18.6133 ], [ 101.1888, 18.6113 ], [ 101.1837, 18.6098 ], [ 101.1811, 18.603 ], [ 101.1839, 18.6008 ], [ 101.1817, 18.5866 ], [ 101.1845, 18.5852 ], [ 101.1886, 18.5772 ], [ 101.1864, 18.5688 ], [ 101.1835, 18.5657 ], [ 101.1842, 18.5581 ], [ 101.1808, 18.5565 ], [ 101.1763, 18.5582 ], [ 101.1724, 18.555 ], [ 101.1674, 18.5551 ], [ 101.1626, 18.5529 ], [ 101.1586, 18.5534 ], [ 101.1513, 18.5511 ], [ 101.1498, 18.549 ], [ 101.1503, 18.541 ], [ 101.1441, 18.5361 ], [ 101.1398, 18.5261 ], [ 101.1292, 18.5227 ], [ 101.1186, 18.5257 ], [ 101.111, 18.5237 ], [ 101.1057, 18.5196 ], [ 101.0973, 18.4995 ], [ 101.0937, 18.4972 ], [ 101.0931, 18.4895 ], [ 101.0959, 18.482 ], [ 101.085, 18.474 ], [ 101.0696, 18.4584 ], [ 101.0597, 18.4431 ], [ 101.056, 18.4398 ], [ 101.0587, 18.434 ], [ 101.0546, 18.4236 ], [ 101.0608, 18.4205 ], [ 101.0718, 18.4074 ], [ 101.0794, 18.4051 ], [ 101.0836, 18.3989 ], [ 101.0854, 18.3917 ], [ 101.0851, 18.3827 ], [ 101.0891, 18.3773 ], [ 101.086, 18.373 ], [ 101.0859, 18.3684 ], [ 101.0806, 18.3642 ], [ 101.077, 18.3552 ], [ 101.0598, 18.3544 ], [ 101.0541, 18.3471 ], [ 101.0493, 18.344 ], [ 101.0455, 18.3379 ], [ 101.0403, 18.3357 ], [ 101.0381, 18.3324 ], [ 101.031, 18.3315 ], [ 101.0266, 18.3247 ], [ 101.0207, 18.3198 ], [ 101.0076, 18.3164 ], [ 101.0021, 18.3084 ], [ 101.0009, 18.302 ], [ 100.9934, 18.3073 ], [ 100.9873, 18.3054 ], [ 100.9861, 18.3069 ], [ 100.9823, 18.3043 ], [ 100.9797, 18.3005 ], [ 100.981, 18.2974 ], [ 100.9791, 18.2939 ], [ 100.9734, 18.2896 ], [ 100.9724, 18.2861 ], [ 100.9674, 18.2821 ], [ 100.9654, 18.2763 ], [ 100.9618, 18.2757 ], [ 100.9605, 18.2714 ], [ 100.9537, 18.2642 ], [ 100.9493, 18.2629 ], [ 100.9411, 18.2523 ], [ 100.9322, 18.2487 ], [ 100.928, 18.249 ], [ 100.9211, 18.2418 ], [ 100.9187, 18.2315 ], [ 100.9145, 18.2256 ], [ 100.9203, 18.216 ], [ 100.9241, 18.2152 ], [ 100.9273, 18.2092 ], [ 100.9234, 18.2024 ], [ 100.9102, 18.1925 ], [ 100.9107, 18.1855 ], [ 100.9081, 18.175 ], [ 100.9092, 18.1699 ], [ 100.9113, 18.1681 ], [ 100.9118, 18.1626 ], [ 100.9153, 18.1602 ], [ 100.9158, 18.1579 ], [ 100.9128, 18.155 ], [ 100.9061, 18.153 ], [ 100.9037, 18.1506 ], [ 100.8917, 18.1455 ], [ 100.885, 18.149 ], [ 100.8821, 18.1438 ], [ 100.8773, 18.1402 ], [ 100.8734, 18.133 ], [ 100.8748, 18.1283 ], [ 100.8738, 18.1238 ], [ 100.8764, 18.1208 ], [ 100.8769, 18.1168 ], [ 100.8642, 18.1082 ], [ 100.8591, 18.1018 ], [ 100.8519, 18.0873 ], [ 100.8519, 18.0809 ], [ 100.8429, 18.0778 ], [ 100.8379, 18.0793 ], [ 100.8351, 18.078 ], [ 100.8323, 18.0799 ], [ 100.826, 18.0786 ], [ 100.8215, 18.081 ], [ 100.813, 18.0765 ], [ 100.81, 18.0712 ], [ 100.809, 18.0633 ], [ 100.8029, 18.0526 ], [ 100.7992, 18.0513 ], [ 100.7964, 18.0474 ], [ 100.7931, 18.0468 ], [ 100.7765, 18.0277 ], [ 100.769, 18.023 ], [ 100.7603, 18.0261 ], [ 100.7488, 18.0263 ], [ 100.7464, 18.0277 ], [ 100.7437, 18.0264 ], [ 100.7355, 18.0268 ], [ 100.727, 18.0306 ], [ 100.7113, 18.029 ], [ 100.7077, 18.0247 ], [ 100.7014, 18.0261 ], [ 100.6997, 18.0242 ], [ 100.6965, 18.0246 ], [ 100.6942, 18.023 ], [ 100.6929, 18.0247 ], [ 100.6901, 18.024 ], [ 100.6894, 18.0282 ], [ 100.6855, 18.0287 ], [ 100.6817, 18.0269 ], [ 100.6835, 18.0307 ], [ 100.6809, 18.0311 ], [ 100.6814, 18.0329 ], [ 100.67, 18.0406 ], [ 100.6566, 18.0372 ], [ 100.6496, 18.0402 ], [ 100.6448, 18.04 ], [ 100.633, 18.0431 ], [ 100.6256, 18.0414 ], [ 100.6127, 18.048 ], [ 100.606, 18.0459 ], [ 100.5988, 18.0412 ], [ 100.5891, 18.0386 ], [ 100.5792, 18.0422 ], [ 100.5764, 18.0353 ], [ 100.574, 18.0334 ], [ 100.5669, 18.0352 ], [ 100.5615, 18.0313 ], [ 100.5505, 18.0316 ], [ 100.5485, 18.029 ], [ 100.5481, 18.0205 ], [ 100.5438, 18.0148 ], [ 100.5313, 18.0168 ], [ 100.5276, 18.0215 ], [ 100.5123, 18.0188 ], [ 100.5059, 18.0226 ], [ 100.4989, 18.0199 ], [ 100.4974, 18.0223 ], [ 100.4937, 18.0237 ], [ 100.4883, 18.0218 ], [ 100.4763, 18.0233 ], [ 100.4726, 18.0185 ], [ 100.4635, 18.0212 ], [ 100.4581, 18.0195 ], [ 100.4509, 18.0201 ], [ 100.4456, 18.0238 ], [ 100.4245, 18.0115 ], [ 100.4158, 18.0194 ], [ 100.4185, 18.0267 ], [ 100.4158, 18.0202 ], [ 100.4092, 18.0228 ], [ 100.4054, 18.0226 ], [ 100.4001, 18.0194 ], [ 100.3939, 18.0198 ], [ 100.3861, 18.0111 ], [ 100.382, 18.0105 ], [ 100.3802, 18.0026 ], [ 100.3772, 17.9987 ], [ 100.3606, 17.9859 ], [ 100.3518, 17.9816 ], [ 100.3574, 17.962 ], [ 100.356, 17.943 ], [ 100.3614, 17.9347 ], [ 100.3602, 17.931 ], [ 100.3612, 17.9246 ], [ 100.3601, 17.9212 ], [ 100.3555, 17.9192 ], [ 100.3492, 17.9134 ], [ 100.3501, 17.9075 ], [ 100.344, 17.8982 ], [ 100.3445, 17.8948 ], [ 100.3431, 17.8919 ], [ 100.3376, 17.889 ], [ 100.3327, 17.8906 ], [ 100.3278, 17.89 ], [ 100.3265, 17.895 ], [ 100.3202, 17.905 ], [ 100.3148, 17.9076 ], [ 100.3134, 17.9142 ], [ 100.3107, 17.9178 ], [ 100.3106, 17.926 ], [ 100.3086, 17.9309 ], [ 100.3004, 17.937 ], [ 100.2896, 17.9345 ], [ 100.2879, 17.947 ], [ 100.2815, 17.9559 ], [ 100.2658, 17.9513 ], [ 100.2625, 17.9522 ], [ 100.2542, 17.9593 ], [ 100.2483, 17.9601 ], [ 100.2408, 17.9543 ], [ 100.2368, 17.9536 ], [ 100.2331, 17.9474 ], [ 100.2273, 17.9473 ], [ 100.227, 17.9383 ], [ 100.2214, 17.9363 ], [ 100.2198, 17.9343 ], [ 100.2192, 17.9301 ], [ 100.2161, 17.9259 ], [ 100.2162, 17.919 ], [ 100.2087, 17.915 ], [ 100.2038, 17.9158 ], [ 100.1963, 17.9041 ], [ 100.1851, 17.8995 ], [ 100.1709, 17.8882 ], [ 100.1618, 17.8878 ], [ 100.1557, 17.8755 ], [ 100.1485, 17.8695 ], [ 100.1457, 17.8645 ], [ 100.1304, 17.8551 ], [ 100.1266, 17.8572 ], [ 100.1202, 17.8568 ], [ 100.1138, 17.85 ], [ 100.1098, 17.8479 ], [ 100.1024, 17.8453 ], [ 100.0993, 17.8482 ], [ 100.0964, 17.8486 ], [ 100.0918, 17.8453 ], [ 100.0897, 17.8412 ], [ 100.0847, 17.8416 ], [ 100.0821, 17.8381 ], [ 100.0787, 17.8367 ], [ 100.0665, 17.839 ], [ 100.0633, 17.8377 ], [ 100.0592, 17.8318 ], [ 100.0537, 17.8379 ], [ 100.0537, 17.8431 ], [ 100.047, 17.8458 ], [ 100.0364, 17.8421 ], [ 100.0277, 17.8365 ], [ 100.0189, 17.8352 ], [ 100.0147, 17.8319 ], [ 100.0062, 17.8346 ], [ 100.0047, 17.8319 ], [ 99.9991, 17.8304 ], [ 99.9987, 17.8273 ], [ 99.9916, 17.8328 ], [ 99.9886, 17.8325 ], [ 99.9881, 17.8289 ], [ 99.9906, 17.8266 ], [ 99.9905, 17.8186 ], [ 99.9923, 17.8129 ], [ 99.9948, 17.8104 ], [ 99.9906, 17.8081 ], [ 99.9893, 17.8049 ], [ 99.9817, 17.7982 ], [ 99.9756, 17.7971 ], [ 99.9734, 17.7989 ], [ 99.965, 17.7968 ], [ 99.9591, 17.7782 ], [ 99.9479, 17.7772 ], [ 99.9452, 17.7796 ], [ 99.9385, 17.7811 ], [ 99.9339, 17.7888 ], [ 99.9292, 17.7881 ], [ 99.9155, 17.7981 ], [ 99.9125, 17.8021 ], [ 99.9027, 17.8029 ], [ 99.899, 17.8054 ], [ 99.8948, 17.8055 ], [ 99.8929, 17.8031 ], [ 99.8889, 17.8061 ], [ 99.8841, 17.806 ], [ 99.8844, 17.8034 ], [ 99.8809, 17.8006 ], [ 99.88, 17.8042 ], [ 99.8776, 17.8004 ], [ 99.8742, 17.8026 ], [ 99.8724, 17.8009 ], [ 99.8709, 17.8037 ], [ 99.8668, 17.7992 ], [ 99.8608, 17.7972 ], [ 99.8589, 17.7975 ], [ 99.8581, 17.8006 ], [ 99.8575, 17.7985 ], [ 99.854, 17.7966 ], [ 99.8512, 17.8 ], [ 99.848, 17.7998 ], [ 99.8437, 17.7965 ], [ 99.8403, 17.7991 ], [ 99.8384, 17.7955 ], [ 99.8358, 17.797 ], [ 99.8329, 17.8019 ], [ 99.8306, 17.7998 ], [ 99.8271, 17.7994 ], [ 99.8241, 17.8016 ], [ 99.8217, 17.8001 ], [ 99.8135, 17.8018 ], [ 99.8114, 17.8 ], [ 99.8084, 17.8014 ], [ 99.805, 17.799 ], [ 99.8036, 17.7947 ], [ 99.8008, 17.7951 ], [ 99.7973, 17.7907 ], [ 99.795, 17.7916 ], [ 99.792, 17.7896 ], [ 99.7897, 17.7915 ], [ 99.7784, 17.7863 ], [ 99.7773, 17.7805 ], [ 99.7748, 17.7806 ], [ 99.7739, 17.7789 ], [ 99.7749, 17.7778 ], [ 99.7772, 17.7788 ], [ 99.7785, 17.7759 ], [ 99.7736, 17.7738 ], [ 99.7729, 17.77 ], [ 99.7703, 17.7701 ], [ 99.7657, 17.759 ], [ 99.7636, 17.7584 ], [ 99.7625, 17.7605 ], [ 99.7621, 17.7566 ], [ 99.7578, 17.7543 ], [ 99.7569, 17.7514 ], [ 99.7524, 17.7513 ], [ 99.7539, 17.7479 ], [ 99.7579, 17.7481 ], [ 99.754, 17.7425 ], [ 99.7539, 17.7376 ], [ 99.7507, 17.7338 ], [ 99.7468, 17.7347 ], [ 99.7468, 17.7315 ], [ 99.7441, 17.7302 ], [ 99.7432, 17.7264 ], [ 99.7366, 17.7248 ], [ 99.738, 17.7211 ], [ 99.7266, 17.72 ], [ 99.7247, 17.7273 ], [ 99.7207, 17.7299 ], [ 99.7182, 17.7267 ], [ 99.7171, 17.7326 ], [ 99.7112, 17.7372 ], [ 99.7122, 17.7419 ], [ 99.7086, 17.7552 ], [ 99.6992, 17.7551 ], [ 99.6961, 17.7584 ], [ 99.6926, 17.757 ], [ 99.6935, 17.7638 ], [ 99.6921, 17.7666 ], [ 99.6845, 17.771 ], [ 99.6867, 17.7723 ], [ 99.6876, 17.776 ], [ 99.683, 17.7829 ], [ 99.6751, 17.7894 ], [ 99.6713, 17.7989 ], [ 99.6565, 17.7941 ], [ 99.6513, 17.7942 ], [ 99.6372, 17.8041 ], [ 99.637, 17.8064 ], [ 99.6307, 17.8132 ], [ 99.6246, 17.8107 ], [ 99.6183, 17.8158 ], [ 99.6146, 17.8157 ], [ 99.6128, 17.8136 ], [ 99.6003, 17.8198 ], [ 99.5854, 17.8141 ], [ 99.573, 17.8139 ], [ 99.5677, 17.8093 ], [ 99.5522, 17.8102 ], [ 99.5448, 17.8087 ], [ 99.5416, 17.8032 ], [ 99.534, 17.7994 ], [ 99.5209, 17.7957 ], [ 99.518, 17.793 ], [ 99.5188, 17.7901 ], [ 99.5169, 17.787 ], [ 99.5171, 17.7812 ], [ 99.5148, 17.7791 ], [ 99.5117, 17.7803 ], [ 99.5067, 17.7784 ], [ 99.5001, 17.7726 ], [ 99.4974, 17.7677 ], [ 99.4899, 17.7601 ], [ 99.483, 17.7432 ], [ 99.4761, 17.7396 ], [ 99.4736, 17.7366 ], [ 99.4762, 17.7284 ], [ 99.4795, 17.7235 ], [ 99.4754, 17.7151 ], [ 99.4767, 17.6962 ], [ 99.4717, 17.689 ], [ 99.4775, 17.6747 ], [ 99.4732, 17.6704 ], [ 99.4716, 17.6641 ], [ 99.4677, 17.66 ], [ 99.4566, 17.653 ], [ 99.4528, 17.6532 ], [ 99.4488, 17.6423 ], [ 99.4511, 17.6284 ], [ 99.4481, 17.6212 ], [ 99.4487, 17.6172 ], [ 99.4511, 17.6157 ], [ 99.4511, 17.6116 ], [ 99.4565, 17.6073 ], [ 99.4545, 17.6043 ], [ 99.4551, 17.5974 ], [ 99.4538, 17.5963 ], [ 99.4488, 17.5977 ], [ 99.4446, 17.6017 ], [ 99.4427, 17.6074 ], [ 99.4404, 17.6081 ], [ 99.4277, 17.6075 ], [ 99.4233, 17.6038 ], [ 99.4205, 17.5981 ], [ 99.4203, 17.594 ], [ 99.424, 17.5906 ], [ 99.417, 17.582 ], [ 99.4173, 17.5764 ], [ 99.4148, 17.5721 ], [ 99.4166, 17.569 ], [ 99.4212, 17.5673 ], [ 99.431, 17.5672 ], [ 99.4324, 17.5641 ], [ 99.4368, 17.5619 ], [ 99.4322, 17.5467 ], [ 99.4339, 17.5398 ], [ 99.4406, 17.5271 ], [ 99.4391, 17.5242 ], [ 99.4327, 17.5196 ], [ 99.4223, 17.517 ], [ 99.4236, 17.5137 ], [ 99.4216, 17.5117 ], [ 99.4199, 17.5037 ], [ 99.4227, 17.4986 ], [ 99.4193, 17.4928 ], [ 99.4207, 17.4857 ], [ 99.4176, 17.4809 ], [ 99.4176, 17.4783 ], [ 99.4115, 17.4775 ], [ 99.4084, 17.4749 ], [ 99.4074, 17.4697 ], [ 99.4153, 17.4579 ], [ 99.4188, 17.4562 ], [ 99.4159, 17.4482 ], [ 99.4217, 17.4412 ], [ 99.4294, 17.4393 ], [ 99.4359, 17.4322 ], [ 99.4437, 17.4335 ], [ 99.4406, 17.4192 ], [ 99.4314, 17.4163 ], [ 99.4287, 17.4065 ], [ 99.4298, 17.4016 ], [ 99.4319, 17.3995 ], [ 99.4309, 17.3909 ], [ 99.4429, 17.3877 ], [ 99.4464, 17.3795 ], [ 99.4488, 17.3789 ], [ 99.4506, 17.3745 ], [ 99.4561, 17.371 ], [ 99.4575, 17.3666 ], [ 99.4607, 17.3678 ], [ 99.4711, 17.3663 ], [ 99.4732, 17.3619 ], [ 99.472, 17.3552 ], [ 99.4745, 17.3538 ], [ 99.4791, 17.327 ], [ 99.4745, 17.3196 ], [ 99.4708, 17.3182 ], [ 99.463, 17.3088 ], [ 99.4603, 17.308 ], [ 99.4579, 17.3099 ], [ 99.4562, 17.3074 ], [ 99.4575, 17.3046 ], [ 99.4533, 17.294 ], [ 99.4531, 17.2792 ], [ 99.455, 17.2739 ], [ 99.4543, 17.2664 ], [ 99.4566, 17.2644 ], [ 99.4571, 17.2526 ], [ 99.4537, 17.2501 ], [ 99.4476, 17.2499 ], [ 99.4447, 17.2514 ], [ 99.4421, 17.2499 ], [ 99.4448, 17.2408 ], [ 99.4408, 17.2285 ], [ 99.4382, 17.2273 ], [ 99.4332, 17.2301 ], [ 99.4293, 17.2299 ], [ 99.4249, 17.2251 ], [ 99.4195, 17.2243 ], [ 99.4222, 17.219 ], [ 99.4207, 17.217 ], [ 99.4013, 17.2186 ], [ 99.3978, 17.2068 ], [ 99.3909, 17.2055 ], [ 99.3787, 17.2083 ], [ 99.3744, 17.2113 ], [ 99.3704, 17.2202 ], [ 99.3709, 17.2259 ], [ 99.3669, 17.2327 ], [ 99.3623, 17.2358 ], [ 99.3597, 17.2468 ], [ 99.3526, 17.2535 ], [ 99.3484, 17.254 ], [ 99.3418, 17.2618 ], [ 99.3416, 17.2657 ], [ 99.332, 17.2641 ], [ 99.3285, 17.266 ], [ 99.3246, 17.2649 ], [ 99.3219, 17.2679 ], [ 99.3166, 17.2674 ], [ 99.3137, 17.2693 ], [ 99.3107, 17.2684 ], [ 99.3042, 17.2717 ], [ 99.2984, 17.2891 ], [ 99.2984, 17.2911 ], [ 99.301, 17.2923 ], [ 99.2979, 17.2961 ], [ 99.2979, 17.3013 ], [ 99.2945, 17.3064 ], [ 99.2876, 17.3107 ], [ 99.2866, 17.3176 ], [ 99.2776, 17.3296 ], [ 99.2793, 17.3358 ], [ 99.279, 17.3434 ], [ 99.275, 17.3441 ], [ 99.2725, 17.3477 ], [ 99.2716, 17.359 ], [ 99.2736, 17.3725 ], [ 99.2765, 17.3801 ], [ 99.2714, 17.3989 ], [ 99.2608, 17.4039 ], [ 99.2434, 17.4038 ], [ 99.2385, 17.401 ], [ 99.2283, 17.4041 ], [ 99.2267, 17.4032 ], [ 99.2141, 17.3901 ], [ 99.2076, 17.3797 ], [ 99.2105, 17.3714 ], [ 99.2089, 17.3687 ], [ 99.1998, 17.3633 ], [ 99.1973, 17.3574 ], [ 99.1924, 17.3553 ], [ 99.1897, 17.3509 ], [ 99.1778, 17.3467 ], [ 99.1757, 17.3365 ], [ 99.1722, 17.3344 ], [ 99.1664, 17.3364 ], [ 99.1549, 17.336 ], [ 99.1548, 17.3378 ], [ 99.1562, 17.3377 ], [ 99.1532, 17.341 ], [ 99.1503, 17.3496 ], [ 99.1429, 17.3589 ], [ 99.1337, 17.3604 ], [ 99.1292, 17.3637 ], [ 99.1231, 17.3632 ], [ 99.1175, 17.3665 ], [ 99.1177, 17.3688 ], [ 99.1147, 17.3689 ], [ 99.1143, 17.3605 ], [ 99.1127, 17.3577 ], [ 99.1102, 17.3568 ], [ 99.106, 17.3623 ], [ 99.0891, 17.3748 ], [ 99.087, 17.3752 ], [ 99.0775, 17.3708 ], [ 99.0673, 17.3763 ], [ 99.0663, 17.3812 ], [ 99.0587, 17.386 ], [ 99.0548, 17.3867 ], [ 99.0492, 17.3839 ], [ 99.0426, 17.3889 ], [ 99.0444, 17.3935 ], [ 99.0361, 17.4001 ], [ 99.0339, 17.4085 ], [ 99.0207, 17.4095 ], [ 99.0178, 17.4112 ], [ 99.018, 17.4126 ], [ 99.0132, 17.4126 ], [ 99.0149, 17.4205 ], [ 99.0118, 17.4228 ], [ 99.011, 17.4256 ], [ 99.0079, 17.427 ], [ 99.0063, 17.4336 ], [ 99.0014, 17.4373 ], [ 99.0002, 17.4411 ], [ 98.9936, 17.4458 ], [ 98.9938, 17.451 ], [ 98.9883, 17.4542 ], [ 98.9877, 17.4587 ], [ 98.9813, 17.4657 ], [ 98.9753, 17.4633 ], [ 98.9638, 17.4651 ], [ 98.9607, 17.4613 ], [ 98.9587, 17.4635 ], [ 98.9573, 17.4729 ], [ 98.9471, 17.4672 ], [ 98.9385, 17.4695 ], [ 98.9384, 17.4731 ], [ 98.9331, 17.4729 ], [ 98.934, 17.4822 ], [ 98.9308, 17.4839 ], [ 98.928, 17.4901 ], [ 98.9311, 17.4941 ], [ 98.928, 17.4981 ], [ 98.9291, 17.5049 ], [ 98.9234, 17.5117 ], [ 98.9276, 17.5212 ], [ 98.9242, 17.5272 ], [ 98.9139, 17.5318 ], [ 98.9071, 17.543 ], [ 98.9121, 17.5344 ], [ 98.8979, 17.527 ] ], [ [ 100.4173, 18.0338 ], [ 100.416985714285715, 18.034271428571415 ], [ 100.4185, 18.0267 ], [ 100.4173, 18.0338 ] ], [ [ 98.011909967845654, 17.921455627009642 ], [ 98.0113, 17.9198 ], [ 98.011480494766886, 17.916473739295952 ], [ 98.011909967845654, 17.921455627009642 ] ], [ [ 98.0157, 17.9184 ], [ 98.0185, 17.9188 ], [ 98.0232, 17.9229 ], [ 98.0163, 17.9185 ], [ 98.0127, 17.9236 ], [ 98.0157, 17.9184 ] ], [ [ 98.2368, 18.5648 ], [ 98.237454924242428, 18.566361742424249 ], [ 98.2329, 18.5629 ], [ 98.2368, 18.5648 ] ], [ [ 98.2381, 18.5679 ], [ 98.2373, 18.5718 ], [ 98.237833568904591, 18.567264664310944 ], [ 98.2381, 18.5679 ] ], [ [ 98.10021984967544, 18.773976973009905 ], [ 98.102, 18.7736 ], [ 98.1099, 18.7781 ], [ 98.10021984967544, 18.773976973009905 ] ], [ [ 98.174, 18.9495 ], [ 98.1739, 18.9604 ], [ 98.173007492260055, 18.947637139318871 ], [ 98.174, 18.9495 ] ], [ [ 98.186, 19.0114 ], [ 98.186159157111874, 19.01250415246361 ], [ 98.1799, 19.0032 ], [ 98.186, 19.0114 ] ], [ [ 98.2455, 19.1319 ], [ 98.242, 19.1385 ], [ 98.245065981012658, 19.130664715189862 ], [ 98.2455, 19.1319 ] ], [ [ 98.5973, 19.2369 ], [ 98.595642376559951, 19.238493868692363 ], [ 98.6, 19.228 ], [ 98.5973, 19.2369 ] ], [ [ 98.5906, 19.254352941176464 ], [ 98.5902, 19.2516 ], [ 98.5906, 19.250636734693881 ], [ 98.5906, 19.254352941176464 ] ], [ [ 98.592822421524673, 19.264269899103148 ], [ 98.5919, 19.2633 ], [ 98.591653455852978, 19.261603196164597 ], [ 98.592822421524673, 19.264269899103148 ] ], [ [ 98.5986, 19.2696 ], [ 98.598889428571439, 19.270649178571432 ], [ 98.596763746223559, 19.268414086102712 ], [ 98.5986, 19.2696 ] ], [ [ 98.5667, 19.5141 ], [ 98.5687, 19.5096 ], [ 98.5701, 19.5065 ], [ 98.5667, 19.5141 ] ], [ [ 99.3856, 19.8894 ], [ 99.385408780487808, 19.888116097560975 ], [ 99.38675652173913, 19.890586956521744 ], [ 99.3856, 19.8894 ] ], [ [ 99.3849, 19.8847 ], [ 99.3893, 19.8731 ], [ 99.385103108808295, 19.886063730569944 ], [ 99.3849, 19.8847 ] ], [ [ 99.3985, 19.0036 ], [ 99.402059673024524, 18.998260490463217 ], [ 99.402129109687294, 18.998287692454817 ], [ 99.398317105970946, 19.005355782678865 ], [ 99.3985, 19.0036 ] ], [ [ 99.5002, 19.0728 ], [ 99.4958, 19.0758 ], [ 99.495285007727972, 19.075118392581143 ], [ 99.5002, 19.0728 ] ], [ [ 99.6843, 19.3839 ], [ 99.684745617021278, 19.383474638297869 ], [ 99.6839, 19.3893 ], [ 99.6843, 19.3839 ] ], [ [ 99.6865, 19.3818 ], [ 99.6897, 19.3802 ], [ 99.690477882352951, 19.380309176470586 ], [ 99.685497004991674, 19.382757404326124 ], [ 99.6865, 19.3818 ] ], [ [ 99.697309090909101, 19.379090909090888 ], [ 99.6923671772429, 19.388214442013112 ], [ 99.6954, 19.381 ], [ 99.697309090909101, 19.379090909090888 ] ], [ [ 99.6955, 19.3761 ], [ 99.6979, 19.378 ], [ 99.697521403508773, 19.378698947368427 ], [ 99.6955, 19.3761 ] ], [ [ 99.7053, 19.2426 ], [ 99.7073, 19.2384 ], [ 99.705410112359544, 19.242809737827727 ], [ 99.7053, 19.2426 ] ], [ [ 99.820727972027981, 19.059172027972025 ], [ 99.8207, 19.0594 ], [ 99.820418181818184, 19.059481818181819 ], [ 99.820727972027981, 19.059172027972025 ] ], [ [ 99.8317, 19.0122 ], [ 99.831674259102456, 19.011987637595254 ], [ 99.8355, 19.016 ], [ 99.835413787085514, 19.016285165794059 ], [ 99.8317, 19.0122 ] ], [ [ 99.8313, 19.0089 ], [ 99.831566941603427, 19.008611580336527 ], [ 99.831473831775696, 19.01033411214954 ], [ 99.8313, 19.0089 ] ], [ [ 99.8596, 18.998 ], [ 99.8562, 19.0008 ], [ 99.855692220504906, 19.000859350850078 ], [ 99.8596, 18.998 ] ], [ [ 99.8744, 18.9947 ], [ 99.875129607250756, 18.995239274924472 ], [ 99.872731723027371, 18.995071980676329 ], [ 99.8744, 18.9947 ] ], [ [ 100.116026651860082, 18.80684175458078 ], [ 100.1194, 18.8176 ], [ 100.116, 18.807 ], [ 100.116026651860082, 18.80684175458078 ] ], [ [ 100.339926287149424, 18.811112892423608 ], [ 100.3398, 18.8116 ], [ 100.337991369754548, 18.811156373713381 ], [ 100.339926287149424, 18.811112892423608 ] ], [ [ 100.3383, 18.7941 ], [ 100.33833523685918, 18.793594938351738 ], [ 100.339112468827906, 18.796221446383971 ], [ 100.3383, 18.7941 ] ], [ [ 100.3389, 18.7855 ], [ 100.339521514818884, 18.78512381997804 ], [ 100.338566417910442, 18.790281343283578 ], [ 100.3389, 18.7855 ] ], [ [ 100.3645, 18.7748 ], [ 100.3633, 18.7773 ], [ 100.3586, 18.7825 ], [ 100.3645, 18.7748 ] ], [ [ 100.542745274476516, 18.487857385398982 ], [ 100.5427, 18.488 ], [ 100.5375, 18.4884 ], [ 100.542745274476516, 18.487857385398982 ] ], [ [ 100.5453, 18.4675 ], [ 100.5447, 18.4817 ], [ 100.54354142857143, 18.4853495 ], [ 100.5453, 18.4675 ] ], [ [ 100.551047585394585, 18.454533843737714 ], [ 100.5506, 18.4571 ], [ 100.5474, 18.4607 ], [ 100.551047585394585, 18.454533843737714 ] ], [ [ 100.5493, 18.4366 ], [ 100.5504, 18.4303 ], [ 100.549386923076923, 18.436969423076913 ], [ 100.5493, 18.4366 ] ], [ [ 100.5517, 18.4243 ], [ 100.552569175108545, 18.4215062228654 ], [ 100.5528, 18.4276 ], [ 100.5517, 18.4243 ] ], [ [ 100.552182051282045, 18.414292307692303 ], [ 100.5523, 18.4144 ], [ 100.552329411764717, 18.415176470588278 ], [ 100.552182051282045, 18.414292307692303 ] ], [ [ 100.495233046471611, 18.277522891566267 ], [ 100.4958, 18.278 ], [ 100.494318703241902, 18.279656359102237 ], [ 100.495233046471611, 18.277522891566267 ] ], [ [ 100.4801, 18.266 ], [ 100.4775, 18.2626 ], [ 100.481946623496768, 18.266341967314219 ], [ 100.4801, 18.266 ] ], [ [ 98.6969, 18.4108 ], [ 98.7002, 18.4087 ], [ 98.696413771839659, 18.411823638232278 ], [ 98.6969, 18.4108 ] ], [ [ 98.695, 18.4148 ], [ 98.6961086115993, 18.412466080843558 ], [ 98.6952, 18.4171 ], [ 98.695, 18.4148 ] ], [ [ 99.298936758893277, 18.535747035573124 ], [ 99.297663603245567, 18.536176270905777 ], [ 99.2979, 18.5359 ], [ 99.298936758893277, 18.535747035573124 ] ], [ [ 99.3213, 18.5339 ], [ 99.318171262587143, 18.530858171959721 ], [ 99.3186, 18.5309 ], [ 99.3213, 18.5339 ] ], [ [ 99.0511, 17.6109 ], [ 99.05130353982301, 17.611286725663717 ], [ 99.0475, 17.6102 ], [ 99.0511, 17.6109 ] ], [ [ 98.909166396292022, 17.646856894553878 ], [ 98.919, 17.6409 ], [ 98.9105, 17.6467 ], [ 98.909166396292022, 17.646856894553878 ] ], [ [ 98.907013971539456, 17.646724191461836 ], [ 98.907938028169013, 17.647001408450702 ], [ 98.9071, 17.6471 ], [ 98.907013971539456, 17.646724191461836 ] ], [ [ 98.9085, 17.5498 ], [ 98.906504222093702, 17.561593233082711 ], [ 98.9062, 17.561 ], [ 98.9085, 17.5498 ] ], [ [ 98.6873, 17.7811 ], [ 98.687657835400231, 17.780648816234478 ], [ 98.6866, 17.7894 ], [ 98.6873, 17.7811 ] ], [ [ 99.7157, 18.0697 ], [ 99.7109, 18.0671 ], [ 99.716407382550329, 18.069436465324387 ], [ 99.7157, 18.0697 ] ], [ [ 99.988039491175783, 18.390378730231493 ], [ 99.9829, 18.3908 ], [ 99.9878, 18.39 ], [ 99.988039491175783, 18.390378730231493 ] ], [ [ 100.0073, 18.4083 ], [ 100.002079154698393, 18.40130779647107 ], [ 100.0022, 18.4013 ], [ 100.0073, 18.4083 ] ], [ [ 100.015524237140369, 18.435559459459462 ], [ 100.0077, 18.4204 ], [ 100.0157, 18.4353 ], [ 100.015524237140369, 18.435559459459462 ] ], [ [ 100.0411, 18.4849 ], [ 100.032513407821213, 18.468911173184345 ], [ 100.0331, 18.4694 ], [ 100.0411, 18.4849 ] ], [ [ 100.050873678025852, 18.495902350176248 ], [ 100.05064739166437, 18.495234805409886 ], [ 100.0508, 18.4954 ], [ 100.050873678025852, 18.495902350176248 ] ], [ [ 100.0567, 18.5188 ], [ 100.057377544154761, 18.515158200168219 ], [ 100.0576, 18.5154 ], [ 100.0567, 18.5188 ] ], [ [ 100.1176, 18.7975 ], [ 100.1236, 18.7963 ], [ 100.117451622874796, 18.798380989180835 ], [ 100.1176, 18.7975 ] ], [ [ 100.116476872964171, 18.804168566775257 ], [ 100.117277298311436, 18.799416041275801 ], [ 100.1177, 18.8016 ], [ 100.116476872964171, 18.804168566775257 ] ], [ [ 99.465271428571427, 17.733742857142857 ], [ 99.466851295336781, 17.735520207253884 ], [ 99.4661, 17.7354 ], [ 99.465271428571427, 17.733742857142857 ] ], [ [ 99.461524489795906, 17.729527551020404 ], [ 99.46342, 17.73166 ], [ 99.4617, 17.7308 ], [ 99.461524489795906, 17.729527551020404 ] ], [ [ 99.4574, 17.7138 ], [ 99.4596, 17.7207 ], [ 99.455561737523098, 17.712046580406643 ], [ 99.4574, 17.7138 ] ], [ [ 99.4509, 17.7076 ], [ 99.452465380997182, 17.709093132643464 ], [ 99.444, 17.7049 ], [ 99.4509, 17.7076 ] ], [ [ 99.427482901554399, 17.708863212435233 ], [ 99.428991623036652, 17.708800349040139 ], [ 99.4286, 17.709 ], [ 99.427482901554399, 17.708863212435233 ] ], [ [ 99.4182, 17.7042 ], [ 99.426268482490272, 17.708714508060034 ], [ 99.4237, 17.7084 ], [ 99.4182, 17.7042 ] ], [ [ 99.4048, 17.8205 ], [ 99.404546629213471, 17.819970224719089 ], [ 99.405278227060663, 17.820589269051322 ], [ 99.4048, 17.8205 ] ], [ [ 99.429020487804877, 17.85094243902439 ], [ 99.4269, 17.85 ], [ 99.423, 17.8486 ], [ 99.4289, 17.8506 ], [ 99.429020487804877, 17.85094243902439 ] ], [ [ 99.4401, 17.8619 ], [ 99.4308, 17.856 ], [ 99.4326, 17.857 ], [ 99.4401, 17.8619 ] ], [ [ 99.330026595744684, 18.564887234042562 ], [ 99.330289948453597, 18.565692783505135 ], [ 99.33, 18.5651 ], [ 99.330026595744684, 18.564887234042562 ] ], [ [ 99.358213177257525, 18.598377123745809 ], [ 99.361, 18.6029 ], [ 99.3585, 18.6006 ], [ 99.358213177257525, 18.598377123745809 ] ], [ [ 99.335779937304082, 18.614683385579937 ], [ 99.3302, 18.616 ], [ 99.3347, 18.6147 ], [ 99.335779937304082, 18.614683385579937 ] ], [ [ 99.37252471667567, 18.752509875876971 ], [ 99.3727, 18.7528 ], [ 99.3708, 18.7619 ], [ 99.37252471667567, 18.752509875876971 ] ], [ [ 99.3611, 18.7982 ], [ 99.357, 18.8161 ], [ 99.3599, 18.8013 ], [ 99.3611, 18.7982 ] ], [ [ 99.35267031250001, 18.83354505208332 ], [ 99.3537, 18.8447 ], [ 99.3523, 18.8348 ], [ 99.35267031250001, 18.83354505208332 ] ], [ [ 99.386, 18.9319 ], [ 99.3878, 18.9411 ], [ 99.387620567527193, 18.941718732664825 ], [ 99.386, 18.9319 ] ], [ [ 99.381059259259246, 18.985649382716041 ], [ 99.3917, 18.9917 ], [ 99.3834, 18.9876 ], [ 99.381059259259246, 18.985649382716041 ] ], [ [ 99.396226769626765, 18.995694208494207 ], [ 99.3946, 18.9952 ], [ 99.3917, 18.9917 ], [ 99.396226769626765, 18.995694208494207 ] ], [ [ 100.4611, 19.0521 ], [ 100.460865748661874, 19.051588471567776 ], [ 100.476005551272095, 19.051213723978414 ], [ 100.4611, 19.0521 ] ], [ [ 100.4853, 19.0532 ], [ 100.4799037428632, 19.051117234087545 ], [ 100.4806, 19.0511 ], [ 100.4853, 19.0532 ] ], [ [ 100.547511202635917, 18.995248599670511 ], [ 100.5415, 18.996 ], [ 100.5474, 18.9947 ], [ 100.547511202635917, 18.995248599670511 ] ], [ [ 100.5873, 19.0557 ], [ 100.587902281368812, 19.055499239543732 ], [ 100.587118867924531, 19.056288679245277 ], [ 100.5873, 19.0557 ] ], [ [ 100.5676, 19.0707 ], [ 100.5751, 19.0684 ], [ 100.568073217391301, 19.071488695652175 ], [ 100.5676, 19.0707 ] ], [ [ 100.5656, 19.0732 ], [ 100.566, 19.073062068965516 ], [ 100.566, 19.073502222222221 ], [ 100.5656, 19.0732 ] ], [ [ 100.5667, 19.0767 ], [ 100.5701, 19.0766 ], [ 100.566247244094484, 19.077333858267718 ], [ 100.5667, 19.0767 ] ], [ [ 100.5657, 19.0781 ], [ 100.565993103448278, 19.077689655172417 ], [ 100.5677, 19.083 ], [ 100.5657, 19.0781 ] ], [ [ 100.5704, 19.095 ], [ 100.5706, 19.0911 ], [ 100.5708, 19.0976 ], [ 100.5704, 19.095 ] ], [ [ 100.5818, 19.1017 ], [ 100.5789, 19.1035 ], [ 100.581812295081974, 19.101646721311475 ], [ 100.5818, 19.1017 ] ], [ [ 100.5226, 19.385 ], [ 100.5327, 19.3769 ], [ 100.522547951076731, 19.385408383859502 ], [ 100.5226, 19.385 ] ], [ [ 100.5198, 19.3972 ], [ 100.520086715867166, 19.396817712177118 ], [ 100.51997415517242, 19.397409879310349 ], [ 100.5198, 19.3972 ] ], [ [ 100.5843, 19.4709 ], [ 100.5815, 19.4692 ], [ 100.588461904761914, 19.4709 ], [ 100.5843, 19.4709 ] ], [ [ 100.589951082251076, 19.471653246753259 ], [ 100.58980970464134, 19.471229113924046 ], [ 100.5901, 19.4713 ], [ 100.589951082251076, 19.471653246753259 ] ], [ [ 99.689669706058794, 19.394631153769247 ], [ 99.688913425129087, 19.398552610441779 ], [ 99.6888, 19.3967 ], [ 99.689669706058794, 19.394631153769247 ] ], [ [ 99.688016941789755, 19.40320104257167 ], [ 99.686991811023631, 19.408516535433076 ], [ 99.6868, 19.405 ], [ 99.688016941789755, 19.40320104257167 ] ], [ [ 99.686245256609652, 19.412387558320365 ], [ 99.6847, 19.4204 ], [ 99.6847, 19.4158 ], [ 99.686245256609652, 19.412387558320365 ] ], [ [ 99.87815, 19.453527272727275 ], [ 99.879613203753337, 19.452640482573731 ], [ 99.8791, 19.4537 ], [ 99.87815, 19.453527272727275 ] ], [ [ 100.4, 19.7277 ], [ 100.4056, 19.7294 ], [ 100.406565100671145, 19.730847651006712 ], [ 100.4, 19.7277 ] ] ] } }
]
}
